X,Y,Name,city,ku,address,address2,phone,vaccine
141.47657,43.0309081,中野医院,北海道札幌市,厚別区,北海道札幌市厚別区青葉町6丁目1-5,,011-891-1555,1:2:3:4:5:6:7:8:9:10:11:12
141.4771421,43.0307775,医療法人社団 青葉産婦人科クリニック,北海道札幌市,厚別区,北海道札幌市厚別区青葉町6丁目1-9,,011-893-3207,8
141.4810997,43.0375129,勇気会医療法人 北央病院,北海道札幌市,厚別区,北海道札幌市厚別区青葉町11丁目2-10,,011-892-8531,6:7:8:9:12
141.4799879,43.0577637,森林公園センタークリニック,北海道札幌市,厚別区,北海道札幌市厚別区厚別北2条5丁目1-12,森林公園パークタウンセンタービル2階,011-893-0008,1:2:3:4:5:6:7:9:10:11:12
141.4762215,43.0598162,医療法人社団桐佑会 札幌藤島クリニック,北海道札幌市,厚別区,北海道札幌市厚別区厚別北4条4丁目1-8,,011-801-7707,1:2:3:4:5:6:7:8:9:10:11:12
141.4750241,43.0629798,そらいろこどもクリニック,北海道札幌市,厚別区,北海道札幌市厚別区厚別北5条5丁目1-7,,011-375-8807,1:2:3:4:5:6:7:8:9:10:11:12
141.4653541,43.0341327,たけい内科胃腸科クリニック,北海道札幌市,厚別区,北海道札幌市厚別区厚別中央1条3丁目5-1,,011-891-2707,1:2:3:6
141.4755668,43.0400932,新札幌耳鼻咽喉科医院,北海道札幌市,厚別区,北海道札幌市厚別区厚別中央1条6丁目2-15,新札幌センタービル2階,011-893-1133,10:11
141.4745198,43.0386684,新札幌内科クリニック,北海道札幌市,厚別区,北海道札幌市厚別区厚別中央1条6丁目3-1,ホクノー新札幌ビル3階,011-895-7074,8
141.4745198,43.0386684,医療法人社団育悠会 新札幌こども発達クリニック,北海道札幌市,厚別区,北海道札幌市厚別区厚別中央1条6丁目3-1,,011-893-1511,1:3:4:5:6:7:8
141.4560578,43.0320884,医療法人社団 はしもとクリニック,北海道札幌市,厚別区,北海道札幌市厚別区厚別中央2条1丁目4-15,,011-891-2633,8
141.4719088,43.0406681,医療法人社団 幸田内科消化器クリニック,北海道札幌市,厚別区,北海道札幌市厚別区厚別中央2条5丁目4-1,新札幌七彩館ビル2階,011-896-3888,3:4:5:8:11
141.4724088,43.0385295,医療法人社団恒仁会 新さっぽろ小児科,北海道札幌市,厚別区,北海道札幌市厚別区厚別中央2条5丁目6-3,新さっぽろアークシティデュオⅡ 4F,011-895-8311,1:2:3:4:5:6:7:8:9:10:11:12
141.4737891,43.0420125,独立行政法人地域医療機能推進機構 JCHO札幌北辰病院,北海道札幌市,厚別区,北海道札幌市厚別区厚別中央2条6丁目2-1,,011-893-3000,1:2:3:4:5:6:7:8:9:10:11:12
141.4610016,43.035602,医療法人潤和会 札幌ひばりが丘病院,北海道札幌市,厚別区,北海道札幌市厚別区厚別中央3条2丁目12-1,,011-894-7070,8
141.4616819,43.0394599,中川内科循環器科,北海道札幌市,厚別区,北海道札幌市厚別区厚別中央4条2丁目18-20,,011-891-2943,3:8:11
141.492679,43.0452236,社会福祉法人楡の会 こどもクリニック,北海道札幌市,厚別区,北海道札幌市厚別区厚別町下野幌49番地,,011-898-3929,3:4:5:9
141.4632035,43.0484256,医療法人社団 育愛こども医院,北海道札幌市,厚別区,北海道札幌市厚別区厚別西2条3丁目7-6,,011-893-3323,1:2:3:4:5:6:7:8:9:10:11:12
141.454765,43.0518834,医療法人社団奏健会 さっぽろ厚別通内科,北海道札幌市,厚別区,北海道札幌市厚別区厚別西5条1丁目15-21,,011-895-6671,3:4:5:8:11
141.4529929,43.0521138,医療法人徹仁会 厚別耳鼻咽喉科,北海道札幌市,厚別区,北海道札幌市厚別区厚別西5条1丁目16-22,,011-894-7003,6:7:8
141.4938235,43.0399075,もみじ台クリニック,北海道札幌市,厚別区,北海道札幌市厚別区厚別東1条5丁目18-15,,011-311-2006,1:2:3:4:5:6:7:8:9:10:11
141.4847573,43.0486258,医療法人社団 小野幌医院,北海道札幌市,厚別区,北海道札幌市厚別区厚別東4条４丁目5-15,,011-897-8822,9
141.478076,43.0210508,医療法人ＡＭＣ あおば内科クリニック,北海道札幌市,厚別区,北海道札幌市厚別区厚別南7丁目2-11,,011-891-1112,1:2:3:4:5:8:9
141.4478893,43.0292161,医療法人徳洲会 札幌徳洲会病院,北海道札幌市,厚別区,北海道札幌市厚別区大谷地東1丁目1-1,,011-890-1110,1:2:3:4:5:6:7:8:9:10:11:12
141.454236,43.0279277,医療法人社団 たむら小児科医院,北海道札幌市,厚別区,北海道札幌市厚別区大谷地東4丁目1-2,大谷地ターミナルメディカルビル,011-893-2288,1:2:3:4:5:6:7:8:9:10:11:12
141.4565136,43.0289276,医療法人社団 たさき子ども相談診療室,北海道札幌市,厚別区,北海道札幌市厚別区大谷地東4丁目2-20,,011-802-2888,1:2:3:4:5:6:7:8:9:10:12
141.4707295,43.0186927,医療法人社団 椿原こどもクリニック,北海道札幌市,厚別区,北海道札幌市厚別区上野幌2条2丁目3-11,,011-893-7550,1:2:3:4:5:6:7:8:9:10:11:12
141.4705604,43.014357,医療法人社団アカシア会 いたや内科消化器科,北海道札幌市,厚別区,北海道札幌市厚別区上野幌3条3丁目2-1,,011-896-2828,6:7:8:11
141.4804542,43.0102882,ＳＡＭ ＣＬＩＮＩＣ,北海道札幌市,厚別区,北海道札幌市厚別区上野幌3条6丁目5-6,,011-215-6120,1:2:3:4:5:6:7:8:9:10:11:12
141.4900711,43.037327,医療法人社団 高橋内科医院,北海道札幌市,厚別区,北海道札幌市厚別区もみじ台北5丁目1-2,,011-897-2358,3:8
141.4901271,43.0312138,医療法人社団恒仁会 くまがい小児科,北海道札幌市,厚別区,北海道札幌市厚別区もみじ台西6丁目1-7,,011-897-1118,1:2:3:4:5:6:7:8:9:10:11:12
141.499057,43.0301699,医療法人社団秀和会 いでうち内科医院,北海道札幌市,厚別区,北海道札幌市厚別区もみじ台東4丁目2-7,,011-897-0053,1:2:3:4:5:6:7:8:9
141.490644,43.0263005,医療法人社団 増田内科クリニック,北海道札幌市,厚別区,北海道札幌市厚別区もみじ台南1丁目2-9,,011-897-9191,3:4:5:9
141.5008098,43.0248678,せんば内科医院,北海道札幌市,厚別区,北海道札幌市厚別区もみじ台南6丁目1-6,,011-897-6123,3:4:5:6:8:9
141.3615258,43.0626681,医療法人トルチュ 氏家記念こどもクリニック,北海道札幌市,中央区,北海道札幌市中央区大通東3丁目1-1,トルチュビル 3階,011-281-2811,1:2:3:4:5:6:7:8:9:10:11:12
141.3630952,43.0619488,医療法人社団石史山会 札幌スポーツクリニック,北海道札幌市,中央区,北海道札幌市中央区大通東4丁目1番19号,,011-281-8755,8
141.3510824,43.0598043,医療法人社団 清野内科クリニック,北海道札幌市,中央区,北海道札幌市中央区大通西4丁目1,道銀ビル7階,011-221-2213,8:9
141.349638,43.0595015,まどかレディースクリニック,北海道札幌市,中央区,北海道札幌市中央区大通西5丁目８,昭和ビル9階,011-231-0080,8
141.3500741,43.0607681,中央メディカルクリニック,北海道札幌市,中央区,北海道札幌市中央区大通西5丁目11,大五ビル1階,011-222-0120,3:4:5:8:9:11:12
141.3323064,43.0569958,大通こどもクリニック,北海道札幌市,中央区,北海道札幌市中央区大通西16丁目1-30,第10FUYOビル 8階,011-215-5103,1:3:4:5:6:7:9:10:11:12
141.3313074,43.0569937,塚本循環器ハートクリニック,北海道札幌市,中央区,北海道札幌市中央区大通西17丁目1-27,札幌メディケアセンタービル3階,011-623-4810,11
141.3194855,43.056176,医療法人 むらしたこどもクリニック,北海道札幌市,中央区,北海道札幌市中央区大通西25丁目1-2,ハートランド円山メディカルビル2階,011-640-7300,1:2:3:4:5:6:7:8:9:10:11:12
141.3194855,43.056176,医療法人社団ゆほな会はやしたくみ女性クリニック,北海道札幌市,中央区,北海道札幌市中央区大通西25丁目1-2,ハートランド円山メディカルビル3階,011-640-8845,3:8
141.3175438,43.0566425,医療法人渓仁会 渓仁会円山クリニック,北海道札幌市,中央区,北海道札幌市中央区大通西26丁目3-16,,011-611-7766,8
141.3143304,43.056373,医療法人社団 円山公園内科,北海道札幌市,中央区,北海道札幌市中央区大通西28丁目3-22,,011-633-0123,3:8:11
141.3540736,43.0631485,セントベビークリニック,北海道札幌市,中央区,北海道札幌市中央区北1条西2丁目1,,011-215-0880,8
141.3524764,43.0626624,コロンビア内科,北海道札幌市,中央区,北海道札幌市中央区北1条西3丁目3,時計台スクエアビル4階,011-207-2227,1:2:3:6:7:8:11:12
141.3511488,43.0616486,医療法人社団 大通こしやま内科消化器クリニック,北海道札幌市,中央区,北海道札幌市中央区北1条西4丁目1-1,三甲大通公園ビル1階,011-596-7788,3:5:8
141.3511488,43.0616486,エナ大通クリニック,北海道札幌市,中央区,北海道札幌市中央区北1条西4丁目1-1,三甲大通公園ビル2階,011-241-3000,8
141.3217433,43.0587897,円山ため小児科,北海道札幌市,中央区,北海道札幌市中央区北1条西23丁目2-14,RK円山鳥居前ビル 3階,011-623-5755,1:2:3:4:5:6:7:8:9:10:11:12
141.3205434,43.0587063,円山内科消化器クリニック,北海道札幌市,中央区,北海道札幌市中央区北1条西24丁目4-1,東光ストア円山店5F,011-215-4137,11
141.3188325,43.0584729,円山レディースクリニック,北海道札幌市,中央区,北海道札幌市中央区北1条西25丁目24-4,,011-614-0800,4:5:6:7:8:10:11
141.357451,43.0632263,社会医療法人社団カレスサッポロ 時計台記念病院,北海道札幌市,中央区,北海道札幌市中央区北1条東1丁目2-3,,011-251-1221,8
141.357451,43.0632263,社会医療法人社団カレスサッポロ 時計台記念クリニック,北海道札幌市,中央区,北海道札幌市中央区北1条東1丁目2-3,,011-251-2221,8
141.360323,43.0638985,創世内科クリニック,北海道札幌市,中央区,北海道札幌市中央区北1条東3丁目2-2,シティハウス札幌大通東1階,011-272-7111,3:5:10:11
141.3556122,43.0644678,医療法人社団 草薙レディースクリニック,北海道札幌市,中央区,北海道札幌市中央区北2条西1丁目1,マルイト札幌ビル2階,011-222-9372,8
141.3556122,43.0644678,富田内科循環器科クリニック,北海道札幌市,中央区,北海道札幌市中央区北2条西1丁目1,マルイト札幌ビル2階,011-242-5300,8
141.3522792,43.0638344,医療法人社団緑生会 緑の森皮フ科クリニック,北海道札幌市,中央区,北海道札幌市中央区北2条西3丁目,朝日生命札幌ビル5階,011-221-0002,8
141.3533984,43.0656287,医療法人社団 神谷レディースクリニック,北海道札幌市,中央区,北海道札幌市中央区北3条西2丁目2-1,日通札幌ビル2階,011-231-2722,8
141.3504099,43.0639455,医療法人社団 やましな内科クリニック,北海道札幌市,中央区,北海道札幌市中央区北2条西4丁目1-2,北海道ビルヂング5階,011-241-9074,3:4:5:6:7:8:9:11
141.3621062,43.0656373,医療法人沢史会サッポロファクトリーこどもクリニック,北海道札幌市,中央区,北海道札幌市中央区北2条東４丁目1−2,サッポロファクトリー2条館,011-223−7800,1:2:3:4:5:6:7:8:9:10:11:12
141.3686113,43.0660957,医療法人社団 斎藤医院,北海道札幌市,中央区,北海道札幌市中央区北2条東8丁目86,,011-231-5507,1:2:3:4:5:8:9:11
141.3530985,43.0650815,石田内科クリニック,北海道札幌市,中央区,北海道札幌市中央区北3条西2丁目,本田ビル2階,011-222-2706,6:7:8
141.3499099,43.0650314,医療法人社団みぶな会 産科・婦人科ひなたクリニック,北海道札幌市,中央区,北海道札幌市中央区北3条西4丁目1-1,日本生命札幌ビル3階,011-204-8000,8
141.3199961,43.0607199,医療法人社団慈昂会 昂希内科クリニック,北海道札幌市,中央区,北海道札幌市中央区北3条西24丁目1-22,,011-611-2711,8:10:11
141.3191464,43.0601894,かねし小児科,北海道札幌市,中央区,北海道札幌市中央区北3条西25丁目1-20,,011-612-0345,1:2:3:4:5:6:7:9:10:11:12
141.3568426,43.0661648,ＪＲ札幌病院,北海道札幌市,中央区,北海道札幌市中央区北3条東1丁目,,011-208-7150,1:2:3:4:5:6:7:8:9:10:11:12
141.3691834,43.0675817,ＪＡ北海道厚生連 札幌厚生病院,北海道札幌市,中央区,北海道札幌市中央区北3条東8丁目5,,011-261-5331,1:3:4:5:6:7:8:9:10:11:12
141.3512541,43.0661286,札幌駅前しきしま乳腺外科クリニック,北海道札幌市,中央区,北海道札幌市中央区北4条西3丁目,駅前合同ビル8階,011-208-6000,8
141.3512541,43.0661286,医療法人社団龍櫻会 札幌駅前さくら形成外科,北海道札幌市,中央区,北海道札幌市中央区北4条西3丁目,駅前合同ビル9階,011-242-1155,8
141.3512763,43.0663897,こころメンタルクリニック,北海道札幌市,中央区,北海道札幌市中央区北4条西3丁目1,札幌駅前合同ビル5階,011-280-5000,8
141.3485405,43.0656174,富澤内科クリニック,北海道札幌市,中央区,北海道札幌市中央区北4条西5丁目1,アスティ45ビル6階,011-205-6181,8:11
141.3452353,43.0651424,国家公務員共済組合連合会 斗南病院,北海道札幌市,中央区,北海道札幌市中央区北4条西7丁目3-8,,011-231-2121,8
141.3307477,43.0638866,クリニック・イン・ザ・モーニング,北海道札幌市,中央区,北海道札幌市中央区北4条西16丁目1-3,,011-611-2005,1:2:3:4:5:6:7:8:9:10:11:12
141.3461795,43.0667645,斗南前よしざき内科消化器内科クリニック,北海道札幌市,中央区,北海道札幌市中央区北5条西6丁目2-2,札幌センタービル14階,011-222-0700,11
141.3146216,43.0621084,宮の森ファミリークリニック,北海道札幌市,中央区,北海道札幌市中央区北5条西27丁目2-1,,011-623-0023,1:2:3:4:5:6:7:8:9:10:11:12
141.314566,43.0622944,医療法人社団 清水クリニック,北海道札幌市,中央区,北海道札幌市中央区北5条西27丁目2-3,メディック28ビル3階,011-622-8985,11
141.3320112,43.0671806,そうえんにっこり小児科,北海道札幌市,中央区,北海道札幌市中央区北7条西15丁目28-11,中央カクマンビル2階,011-213-8020,1:2:3:4:5:6:7:8:9:10:11:12
141.3180153,43.0673857,北円山 杜のこどもクリニック,北海道札幌市,中央区,北海道札幌市中央区北9条西24丁目1-26,,011-616-8700,1:2:3:4:5:6:7:8:9:10:11:12
141.3298679,43.0710622,桑園駅前内科クリニック,北海道札幌市,中央区,北海道札幌市中央区北10条西15丁目1-57,ブランズ札幌桑園駅前ウエスト1階,011-642-3111,11
141.3343442,43.0707969,市立札幌病院,北海道札幌市,中央区,北海道札幌市中央区北11条西13丁目1-1,,011-726-2211,1:2:3:4:5:6:7:8:9:10:12
141.3328678,43.0713839,市立病院前内科,北海道札幌市,中央区,北海道札幌市中央区北11条西14丁目1-1,ほくやくビル２階,011-790-8230,11
141.3331277,43.0706692,のだレディースクリニック,北海道札幌市,中央区,北海道札幌市中央区北11条西15丁目2-1,サンエーアインビル2階,011-708-0550,8
141.3331277,43.0706692,医療法人社団水色の木もれ陽 肝臓クリニック札幌,北海道札幌市,中央区,北海道札幌市中央区北11条西15丁目2-1,サンエーアインビル3階,011-708-8080,1:2:3:4:5:6:7:9:10:11:12
141.3428582,43.0573766,椿診療所,北海道札幌市,中央区,北海道札幌市中央区南1条西10丁目3,南一条道銀ビル1階,011-281-0808,8
141.3347145,43.0565376,ＮＴＴ東日本札幌病院,北海道札幌市,中央区,北海道札幌市中央区南1条西15丁目,,011-623-7000,1:2:3:4:5:6:7:8:9:10:11:12
141.3327703,43.0560431,医療法人社団さっぽろ小児内分泌クリニック,北海道札幌市,中央区,北海道札幌市中央区南1条西16丁目,レーベンビル3階,011-688-7080,1:2:3:4:5:6:7:8:10:11:12
141.3327703,43.0560431,医療法人 糖生会大通り内科クリニック,北海道札幌市,中央区,北海道札幌市中央区南1条西16丁目,レーベンビル4階,011-632-8500,4:5
141.3170468,43.0550649,医療法人社団 小泉呼吸器科・内科クリニック,北海道札幌市,中央区,北海道札幌市中央区南1条西27丁目1-41,,011-632-8881,1:2:3:4:5:6:7:8:9:10:11
141.3549542,43.059335,医療法人社団 ルミネレディースクリニック,北海道札幌市,中央区,北海道札幌市中央区南1条西2丁目,南一条Kビル3階,011-200-7700,8
141.351935,43.0593405,医療法人 日之出内科クリニック,北海道札幌市,中央区,北海道札幌市中央区南1条西4丁目13,日之出ビル7階,011-200-7757,4:5:8:11
141.3516546,43.0586461,医療法人社団 モリタ内科胃腸科クリニック,北海道札幌市,中央区,北海道札幌市中央区南1条西4丁目5-1,大手町ビル6階,011-222-6667,8:9:11
141.3487437,43.0585405,医療法人明日葉会 札幌マタニティ・ウイメンズ南一条クリニック,北海道札幌市,中央区,北海道札幌市中央区南1条西6丁目,第27桂和ビル4階,011-208-1880,8
141.3490299,43.0588766,財団法人パブリックヘルスリサーチセンター北海道支部 札幌商工診療所,北海道札幌市,中央区,北海道札幌市中央区南1条西6丁目11,札幌北辰ビル2階,011-251-2884,8
141.3584678,43.060735,医療法人社団花水木 札幌こころの診療所,北海道札幌市,中央区,北海道札幌市中央区南1条東2丁目6,大通バスセンタービル2号館5階,011-218-8888,10:11
141.3175745,43.0536262,響きの杜クリニック,北海道札幌市,中央区,北海道札幌市中央区南2条西27丁目1-9,,011-632-8331,8
141.3537377,43.0579657,医療法人社団 林レディースクリニック,北海道札幌市,中央区,北海道札幌市中央区南2条西3丁目,エルセントロ札幌3階,011-206-3050,8:9
141.3538655,43.058199,桜井内科・胃腸内科,北海道札幌市,中央区,北海道札幌市中央区南2条西3丁目12-5,江木ビル8階,011-272-1155,8
141.3457163,43.0571684,医療法人社団小六メディカルクリニック おおこうち産科婦人科,北海道札幌市,中央区,北海道札幌市中央区南2条西8丁目10,,011-233-4103,8
141.3560043,43.056902,医療法人社団結仁会 浜田内科消化器科クリニック,北海道札幌市,中央区,北海道札幌市中央区南3条西2丁目1-1,H&Bプラザビル4階,011-219-5555,8:12
141.3397336,43.0553573,竹村クリニック,北海道札幌市,中央区,北海道札幌市中央区南3条西12丁目325番地,,011-271-1811,8
141.3256849,43.0537821,医療法人社団 円山リラクリニック,北海道札幌市,中央区,北海道札幌市中央区南3条西21丁目2-11,,011-611-1366,3:8
141.3616649,43.0580964,医療法人えんどう会 創成東病院,北海道札幌市,中央区,北海道札幌市中央区南3条東3丁目13,,011-222-2117,11
141.3494133,43.0548271,医療法人社団 にひら小児科医院,北海道札幌市,中央区,北海道札幌市中央区南4条西6丁目4,,011-521-1391,1:2:3:4:5:6:7:8:9:10:11:12
141.3323288,43.0539267,ほしい小児科・整形外科,北海道札幌市,中央区,北海道札幌市中央区南4条西16丁目1-28,,011-561-2132,1:2:3:4:5:6:7:8:9:10:11:12
141.3206105,43.0519905,医療法人菊郷会 愛育病院,北海道札幌市,中央区,北海道札幌市中央区南4条西25丁目2-1,,011-563-2211,1:2:3:4:5:6:7:8:9:10:11:12
141.3563488,43.0552133,田畑産婦人科,北海道札幌市,中央区,北海道札幌市中央区南5条西2丁目6,,011-531-7770,6:8
141.3346703,43.0524519,佐野内科医院,北海道札幌市,中央区,北海道札幌市中央区南5条西15丁目1-6,,011-561-0288,8:11
141.3279016,43.0502826,南円山内科医院,北海道札幌市,中央区,北海道札幌市中央区南6条西20丁目2-5,,011-520-3670,3:6:7:8:12
141.3567295,43.0526414,医療法人社団杏友会 リバーサイド内科循環器科クリニック,北海道札幌市,中央区,北海道札幌市中央区南7条西2丁目1,第2リバーサイドマンション1階,011-521-2321,6:7:8:9
141.3449418,43.0508747,南７条クリニック,北海道札幌市,中央区,北海道札幌市中央区南7条西9丁目1024-2,,011-551-2121,1:2:3:4:5:6:7:8:9:10:11:12
141.3349899,43.0498245,中央内科医院,北海道札幌市,中央区,北海道札幌市中央区南7条西15丁目2-1-1,,011-561-6362,8
141.3315152,43.0499883,医療法人社団若浜医院,北海道札幌市,中央区,北海道札幌市中央区南7条西17丁目1-5,,011-561-6767,1:2:3:4:5:6:7:8:9:10:11:12
141.3550464,43.0506055,医療法人社団 産婦人科吉尾医院,北海道札幌市,中央区,北海道札幌市中央区南8条西3丁目1-7,,011-511-5564,8
141.32876,43.0486717,医療法人社団 高木医院,北海道札幌市,中央区,北海道札幌市中央区南8条西18丁目1-15,,011-561-0019,1:2:3:4:5:6:7:8:9:10:11
141.3234135,43.0463468,医療法人社団 旭山内科クリニック,北海道札幌市,中央区,北海道札幌市中央区南8条西24丁目2-11,旭山公園メディカル2階,011-552-3666,3:4:5:6:7:8:9:11
141.3388369,43.0470083,おく医院,北海道札幌市,中央区,北海道札幌市中央区南9条西13丁目3-8,,011-561-2826,1:2:3:4:5:6:7:8:9:10:11:12
141.3348955,43.0467249,医療法人社団 さっぽろ幌西クリニック,北海道札幌市,中央区,北海道札幌市中央区南9条西15丁目3-30,,011-551-3315,11
141.3245799,43.0452303,中橋内科クリニック,北海道札幌市,中央区,北海道札幌市中央区南10条西21丁目7-17,,011-561-3330,8
141.3481806,43.0453004,田代内科呼吸器科クリニック,北海道札幌市,中央区,北海道札幌市中央区南11条西8丁目2-1,ドミ16中島公園1階,011-561-2511,1:2:3:4:5:6:8:9:12
141.3392898,43.0445558,高岡レディースケアクリニック,北海道札幌市,中央区,北海道札幌市中央区南11条西13丁目2-3,,011-562-2882,8
141.3297018,43.0444,医療法人社団 今井内科小児科医院,北海道札幌市,中央区,北海道札幌市中央区南11条西18丁目1-25,,011-561-3627,1:2:3:4:5:6:7:8:9:10:11:12
141.3249635,43.0440832,土田内科・循環器科クリニック,北海道札幌市,中央区,北海道札幌市中央区南11条西21丁目4-33,,011-512-2020,3:8:11
141.3359124,43.0430698,西線医院,北海道札幌市,中央区,北海道札幌市中央区南12条西15丁目3-1,,011-561-8507,8
141.327719,43.0400171,医療法人みたに胃腸内科,北海道札幌市,中央区,北海道札幌市中央区南13条西22丁目2-11,,011-530-1522,8:9
141.3487558,43.0409621,行啓通り かこクリニック,北海道札幌市,中央区,北海道札幌市中央区南14条西8丁目5-1-102,,011-596-9500,3:5:8:10:11
141.3305409,43.0395811,医療法人社団 はせ小児科クリニック,北海道札幌市,中央区,北海道札幌市中央区南14条西18丁目4-3,,011-532-5151,1:2:3:4:5:6:7:8:9:10:11:12
141.343487,43.0395982,医療法人社団千風会 ちあき内科呼吸器科クリニック,北海道札幌市,中央区,北海道札幌市中央区南15条西11丁目1-5,唯ビル2階,011-522-3777,8
141.3373291,43.039498,やまはな野村内科クリニック,北海道札幌市,中央区,北海道札幌市中央区南15条西14丁目1-22,マックスバリュ南15条店2階,011-520-3360,3:8:10:11
141.3501642,43.0380791,あんざい内科クリニック,北海道札幌市,中央区,北海道札幌市中央区南16条西7丁目2-15,,011-511-9073,1:2:3:4:5:6:7:8
141.3514503,43.0375931,松家内科小児科医院,北海道札幌市,中央区,北海道札幌市中央区南17条西6丁目4-13,,011-521-1141,1:2:3:4:5:6:7:8:9:10:11:12
141.3388655,43.033932,医療法人社団 伏見内科,北海道札幌市,中央区,北海道札幌市中央区南19条西14丁目1-4,,011-513-2430,9
141.3382018,43.032196,きちかわクリニック,北海道札幌市,中央区,北海道札幌市中央区南20条西14丁目1573-8,,011-518-5257,10:11:12
141.3354966,43.0319932,ゆうしん内科クリニック,北海道札幌市,中央区,北海道札幌市中央区南20条西16丁目2-1,,011-552-7000,11
141.3469176,43.0319408,医療法人社団 土田病院,北海道札幌市,中央区,北海道札幌市中央区南21条西9丁目,,011-531-7013,4:5:8:12
141.3412099,43.0310018,医療法人社団 きむら小児科医院,北海道札幌市,中央区,北海道札幌市中央区南21条西13丁目2-3,,011-513-2220,1:2:3:4:5:6:7:8:9:10:11:12
141.3444985,43.030588,オアシスレディースクリニック,北海道札幌市,中央区,北海道札幌市中央区南22条西11丁目1-48,山鼻メディカルビル4階,011-512-2525,8
141.3425325,43.0236164,社会医療法人 北海道循環器病院,北海道札幌市,中央区,北海道札幌市中央区南27条西13丁目1-30,,011-563-3911,8
141.2932634,43.0432655,医療法人社団明日佳 札幌明日佳病院,北海道札幌市,中央区,北海道札幌市中央区宮の森１条17丁目1-25,,011-513-2430,9
141.3079332,43.0630329,医療法人社団 うめつ小児科,北海道札幌市,中央区,北海道札幌市中央区宮の森2条5丁目5-15,,011-643-8878,1:2:3:4:5:6:7:8:9:10:11:12
141.3099773,43.066452,医療法人社団青葉 いまいホームケアクリニック,北海道札幌市,中央区,北海道札幌市中央区宮の森3条1丁目1-38,,011-215-8098,10:11
141.3056529,43.0622495,宮の森三条内科クリニック,北海道札幌市,中央区,北海道札幌市中央区宮の森3条6丁目2-10,,011-616-0036,8:11
141.3027087,43.0621966,医療法人讃生会 宮の森記念病院,北海道札幌市,中央区,北海道札幌市中央区宮の森3条7丁目5-25,,011-641-6641,8
141.3633472,43.0746696,医療法人社団田邉医院新生クリニック,北海道札幌市,東区,北海道札幌市東区北10条東6丁目1-35,,011-741-2688,11
141.3677497,43.0763695,医療法人社団 川島医院,北海道札幌市,東区,北海道札幌市東区北11条東10丁目1-1,,011-711-9965,1:2:3:4:5:6:7:8:9:10:11:12
141.357367,43.0763747,社会医療法人母恋 天使病院,北海道札幌市,東区,北海道札幌市東区北12条東3丁目1-1,,011-711-0101,1:2:3:4:5:6:7:8:9:10:11:12
141.3588029,43.0767081,社会医療法人社団カレスサッポロ よつば家庭医療クリニック,北海道札幌市,東区,北海道札幌市東区北12条東4丁目1-1,,011-722-7700,1:3:4:5:6:7:9:10:11
141.3637331,43.0772165,医療法人社団 ポプラ小児科医院,北海道札幌市,東区,北海道札幌市東区北12条東7丁目17,メディカルセンター光星1階,011-711-7425,1:2:3:4:5:6:7:8:9:10:11:12
141.3637331,43.0772165,光星メディカルクリニック,北海道札幌市,東区,北海道札幌市東区北12条東7丁目17,メディカルセンター光星2階,011-704-6887,3:5:6:7:8
141.3744068,43.0840132,医療法人社団健守会 札幌でむら小児クリニック,北海道札幌市,東区,北海道札幌市東区北16条東16丁目1-13,北愛メディカルビル3階,011-781-4115,1:2:3:4:5:6:7:8:9:10:11:12
141.3510393,43.0818072,医療法人社団 野沢医院,北海道札幌市,東区,北海道札幌市東区北17条東1丁目2-25,,011-741-3535,1:2:3:4:5:6:7:8:9:10:11:12
141.3724097,43.0849047,医療法人育愛会 札幌東豊病院,北海道札幌市,東区,北海道札幌市東区北17条東15丁目3-1,,011-704-3911,1:2:3:4:5:6:7:8:9:10:12
141.3505558,43.083382,北18条つじ内科・消化器内科,北海道札幌市,東区,北海道札幌市東区北18条東1丁目3-3,,011-752-1801,11
141.3625993,43.0865598,医療法人社団 谷村医院サンクリニック,北海道札幌市,東区,北海道札幌市東区北19条東8丁目5-2,,011-731-7226,1:2:5:6:7:8:9
141.3617659,43.0876541,美香保医院,北海道札幌市,東区,北海道札幌市東区北20条東7丁目2-27,,011-711-7787,1:2:3:4:5:6:7:8:9:12
141.3686042,43.0877404,医療法人社団 藤田医院,北海道札幌市,東区,北海道札幌市東区北20条東13丁目1-2,,011-711-8084,1:2:3:4:5:6:7:9:10:11:12
141.363296,43.0914564,医療法人社団 石川内科医院,北海道札幌市,東区,北海道札幌市東区北23条東9丁目1-27,,011-751-2750,1:2:3:4:5:6:7:8:9:10:11:12
141.3671929,43.0932175,医療法人社団 明園内科小児科医院,北海道札幌市,東区,北海道札幌市東区北23条東13丁目1-15,,011-751-0221,1:3:4:5:9
141.3718813,43.0949368,ふるかわ小児科アレルギー科クリニック,北海道札幌市,東区,北海道札幌市東区北24条東16丁目1-7,グローバリビル,011-789-5555,1:2:3:4:5:6:7:8:9:10:11:12
141.3722107,43.0934347,元町内科クリニック,北海道札幌市,東区,北海道札幌市東区北23条東16丁目1-11,元町メディカルビル2階,011-787-6666,11
141.3749532,43.0946036,医療法人社団 中村医院,北海道札幌市,東区,北海道札幌市東区北24条東17丁目1-19,,011-782-1901,3:4:5:6:7:8:9:11
141.3845552,43.0944651,医療法人社団元町こどもの城 元町こどもクリニック,北海道札幌市,東区,北海道札幌市東区北24条東21丁目5-1,グリーンメディカルモール2階,011-782-2820,1:2:3:4:5:6:7:8:9:10:11:12
141.3845552,43.0944651,医療法人社団昭平会 みよか内科クリニック,北海道札幌市,東区,北海道札幌市東区北24条東21丁目5-1,グリーンメディカルモール1階,011-781-3431,8
141.352994,43.0928476,こころと発達クリニック えるむの木,北海道札幌市,東区,北海道札幌市東区北25条東3丁目1-37,,011-733-0087,1:2:3:4:5:6:7:8:9:10:11:12
141.3539523,43.0931532,医療法人社団 平澤内科呼吸器科クリニック,北海道札幌市,東区,北海道札幌市東区北25条東3丁目3-11,,011-711-8297,1:2:3:4:5:6:7:8:9:10:11:12
141.3711118,43.0954645,医療法人社団 八田内科,北海道札幌市,東区,北海道札幌市東区北25条東15丁目4-27,,011-751-2548,8
141.3834829,43.0963731,医療法人社団豊生会 元町ひまわり消化器内科・腎透析クリニック,北海道札幌市,東区,北海道札幌市東区北25条東20丁目7-1,,011-783-5100,1:2:3:4:5:8:11
141.3681814,43.0968726,公益財団法人 北海道対がん協会札幌がん検診センター,北海道札幌市,東区,北海道札幌市東区北26条東14丁目1-15,,011-748-5511,8
141.3599987,43.0969057,社会医療法人社団カレスサッポロ 北光記念クリニック,北海道札幌市,東区,北海道札幌市東区北27条東8丁目1-15,,011-722-1122,11
141.3484665,43.097608,にしはら内科クリニック,北海道札幌市,東区,北海道札幌市東区北30条東1丁目4-1,,011-721-2486,8
141.3665813,43.1001916,医療法人社団 石田内科小児科医院,北海道札幌市,東区,北海道札幌市東区北30条東13丁目3-10,,011-753-0380,1:2:3:4:5:6:7:8:9:10:11:12
141.3660089,43.1035634,医療法人徳洲会 札幌東徳洲会病院,北海道札幌市,東区,北海道札幌市東区北33条東14丁目3-1,,011-722-1110,1:2:3:4:5:6:7:8:9:10:12
141.3610092,43.1065128,社会福祉法人麦の子会 むぎのこ発達クリニック,北海道札幌市,東区,北海道札幌市東区北36条東10丁目2-7,,011-753-6467,1:2:3:4:5:6:7:8:9:10:11:12
141.3679613,43.1074267,医療法人基仁会新道東おおた内科,北海道札幌市,東区,北海道札幌市東区北37条東15丁目1-24,,011-748-1551,1:2:3:4:5:8:9:10:11
141.3567789,43.1076653,石川内科クリニック,北海道札幌市,東区,北海道札幌市東区北38条東7丁目2-17,北栄メディカルビル1階,011-752-7337,1:2:3:4:5:6:7:8:9:10:11:12
141.344641,43.1079815,社会医療法人 耳鼻咽喉科麻生病院,北海道札幌市,東区,北海道札幌市東区北40条東1丁目1-7,,011-731−4133,3:4:5:9
141.3500405,43.1086871,鈴木内科医院,北海道札幌市,東区,北海道札幌市東区北40条東3丁目2-17,,011-751-4038,8
141.3556982,43.111123,みきファミリークリニック,北海道札幌市,東区,北海道札幌市東区北41条東7丁目3-12,,011-299-6555,1:2:3:4:5:6:7:8:9:10:11:12
141.3653306,43.1125481,医療法人北海道家庭医療学センター栄町ファミリークリニック,北海道札幌市,東区,北海道札幌市東区北41条東15丁目1-18,,011-723-8633,1:2:3:4:5:6:7:8:9:10:11:12
141.3675026,43.1127926,特定医療法人とこはる 東栄病院,北海道札幌市,東区,北海道札幌市東区北41条東16丁目3-14,,011-782-0111,1:2:3:4:5:6:7:8:9:10:11:12
141.3673721,43.1133425,栄町レディースクリニック,北海道札幌市,東区,北海道札幌市東区北42条東16丁目1-1,,011-783-1111,8
141.3673721,43.1133425,医療法人社団 ちいろば子供クリニック,北海道札幌市,東区,北海道札幌市東区北42条東16丁目1-1,N42メディカルビル4階,011-789-3888,1:2:3:4:5:6:7:8:9:10:11:12
141.3673721,43.1133425,栄町内科循環器内科クリニック,北海道札幌市,東区,北海道札幌市東区北42条東16丁目1-1,N42メディカルビル6階,011-789-2311,11
141.3452628,43.1145639,医療法人社団 栄北小児科,北海道札幌市,東区,北海道札幌市東区北45条東1丁目3-20,,011-731-1640,1:2:3:4:5:6:7:8:9:10:11:12
141.344471,43.1175828,医療法人為久会 札幌共立医院,北海道札幌市,東区,北海道札幌市東区北48条東1丁目1-5,,011-752-4101,8
141.4030515,43.1253365,医療法人社団豊生会丘珠明陽医院,北海道札幌市,東区,北海道札幌市東区北丘珠3条1丁目21-20,,011-781-1145,1:2:3:4:5:6:7:8:9:10:11:12
141.383671,43.0728399,医療法人社団 北海道こども心療内科氏家医院,北海道札幌市,東区,北海道札幌市東区苗穂町3丁目2-37,,011-711-3450,1:2:3:4:5:6:7:8:9:10:11:12
141.4324397,43.0972495,医療法人社団豊生会 東雁来すこやか内科・小児科クリニック,北海道札幌市,東区,北海道札幌市東区東雁来11条4丁目1-10,,011-791-9991,1:2:3:4:5:6:7:8:9:10:11:12
141.3995682,43.088144,医療法人社団豊生会 東苗穂病院,北海道札幌市,東区,北海道札幌市東区東苗穂3条1丁目2-18,,011-784-1121,3:8:10:11
141.4038733,43.0875498,医療法人社団 つかざき小児科,北海道札幌市,東区,北海道札幌市東区東苗穂4条1丁目14-101,成和ビル2階,011-781-2200,1:2:3:4:5:6:7:8:9:10:11:12
141.4036509,43.0909105,勤医協中央病院,北海道札幌市,東区,北海道札幌市東区東苗穂5条1丁目41番地,,011-782-9111,8
141.4115138,43.0932605,医療法人社団 ユーこどもクリニック,北海道札幌市,東区,北海道札幌市東区東苗穂7条2丁目2-25,C7ビル1階,011-785-4970,1:2:3:4:5:6:7:8:9:10:11:12
141.412222,43.0951103,医療法人社団英仁会 札苗病院,北海道札幌市,東区,北海道札幌市東区東苗穂7条2丁目8-20,,011-783-3311,8
141.4201317,43.1067035,医療法人社団プライマリ さの内科循環器クリニック,北海道札幌市,東区,北海道札幌市東区東苗穂12条2丁目21-15,,011-791-5333,1:2:3:4:5:6:7:8:9:10:11:12
141.4217565,43.1055287,医療法人 モエレ外科胃腸科,北海道札幌市,東区,北海道札幌市東区東苗穂12条3丁目21-3,,011-791-7711,8
141.3966015,43.0921713,医療法人社団 伏古レディースクリニック,北海道札幌市,東区,北海道札幌市東区伏古8条3丁目6-20,,011-780-1103,6:7:8
141.3970318,43.0948321,勤医協伏古10条クリニック,北海道札幌市,東区,北海道札幌市東区伏古10条3丁目,,011-786-5588,11
141.4049641,43.0968487,医療法人社団 岡田内科呼吸器科クリニック,北海道札幌市,東区,北海道札幌市東区伏古12条5丁目8-22,,011-787-2171,3:4:5:7:8:9:10:11
141.391234,43.0754592,医療法人いけだ内科循環器クリニック,北海道札幌市,東区,北海道札幌市東区本町1条7丁目1-46,,011-789-0055,8:10:11
141.3895728,43.0787976,医療法人社団ブロッサム 苗穂レディスクリニック,北海道札幌市,東区,北海道札幌市東区本町2条5丁目2-4,,011-781-1955,1:2:4:5:6:7:8:9:12
141.3899786,43.155852,医療法人社団 めばえこどもクリニック,北海道札幌市,北区,北海道札幌市北区あいの里1条3丁目4-8,,011-770-5160,1:2:3:4:5:6:7:8:9:10:11:12
141.3999667,43.1559831,医療法人社団 あいの里内科消化器科クリニック,北海道札幌市,北区,北海道札幌市北区あいの里1条6丁目,クリーンリバーネオシティあいの里1階,011-778-7111,1:2:3:4:5:6:7:8:9:10:11:12
141.3917866,43.1589462,かしま内科クリニック,北海道札幌市,北区,北海道札幌市北区あいの里2条3丁目16-7,,011-778-7031,3:8:11
141.3978221,43.1602798,北海道医療大学病院,北海道札幌市,北区,北海道札幌市北区あいの里2条5丁目,,011-778-7575,1:2:3:4:5:6:7:8:9:10:11:12
141.4102181,43.1608916,医療法人社団 いけだクリニック,北海道札幌市,北区,北海道札幌市北区あいの里2条8丁目4-5,,011-778-2721,1:2:3:4:5:6:7:8:9:10:11:12
141.3951222,43.1627017,鈴木外科循環器科クリニック,北海道札幌市,北区,北海道札幌市北区あいの里3条4丁目8-1,,011-770-4730,3:4:5
141.3516011,43.0701614,さっぽろ内科・リウマチ膠原病クリニック,北海道札幌市,北区,北海道札幌市北区北7条西2丁目20,東京建物札幌ビル3階,011-700-2000,1:3:4:5:6:7:9:10:11
141.3469654,43.0690087,医療法人社団モアナ エムズレディースクリニック,北海道札幌市,北区,北海道札幌市北区北7条西5丁目7-1,札幌北スカイビル5階,011-738-7777,8
141.3478792,43.0697586,ウィミンズクリニック札幌,北海道札幌市,北区,北海道札幌市北区北7条西5丁目8-1,北7条ヨシヤビル5階,011-738-7877,8:11:12
141.3498873,43.0710057,公益財団法人結核予防会北海道支部 札幌複十字総合健診センター,北海道札幌市,北区,北海道札幌市北区北8条西3丁目28,札幌エルプラザ5階,011-700-1331,8
141.3498873,43.0710057,医療法人社団 札幌駅前アップルレディースクリニック,北海道札幌市,北区,北海道札幌市北区北8条西3丁目28,札幌エルプラザ6階,011-736-8222,8:11
141.3507508,43.0756302,医療法人社団 佐藤診療所,北海道札幌市,北区,北海道札幌市北区北12条西2丁目,,011-716-1637,3:4:5:8
141.3471316,43.0767161,医療法人明日葉会 札幌マタニティ・ウイメンズホスピタル,北海道札幌市,北区,北海道札幌市北区北13条西4丁目2-23,,011-746-5505,1:2:4:5:6:7:8:9:10:12
141.3459538,43.0795879,北16条内科循環器クリニック,北海道札幌市,北区,北海道札幌市北区北16条西4丁目1-19,,011-738-1212,8:11
141.3479618,43.0813489,なかお内科循環器クリニック,北海道札幌市,北区,北海道札幌市北区北17条西3丁目2-1,1階,011-729-5510,8
141.3420344,43.0848733,医療法人社団 北20条内科クリニック,北海道札幌市,北区,北海道札幌市北区北20条西6丁目2-10,,011-758-8080,1:2:3:4:5:8:9:11:12
141.3433036,43.0875452,リズミック産婦人科クリニック,北海道札幌市,北区,北海道札幌市北区北22条西5丁目1-32,,011-700-0505,8
141.3270967,43.0879613,医療法人社団和仁会 平田内科クリニック,北海道札幌市,北区,北海道札幌市北区北24条西14丁目3-15,,011-756-2220,8
141.3273605,43.0876919,くすのきこどもクリニック,北海道札幌市,北区,北海道札幌市北区北24条西14丁目3-8,北24条通メディカルプレイス2階,011-717-0415,1:2:3:4:5:6:7:8:9:10:11:12
141.3423145,43.0916058,医療法人社団 さとう小児科医院,北海道札幌市,北区,北海道札幌市北区北25条西5丁目1-1,,011-756-5007,1:2:3:4:5:6:7:8:9:10:11:12
141.3372706,43.0909891,医療法人社団眞明会 今医院,北海道札幌市,北区,北海道札幌市北区北25条西8丁目2-3,,011-716-9255,1:2:3:4:5:6:7:8:9:10:11:12
141.3405256,43.0952331,医療法人社団 小林内科小児科医院,北海道札幌市,北区,北海道札幌市北区北28条西5丁目2-16,,011-716-8531,1:2:3:4:5:6:7:8:9:10:11:12
141.3260766,43.0990266,しもかわ内科・循環器内科,北海道札幌市,北区,北海道札幌市北区北29条西15丁目3-8,,011-716-1300,11
141.3260766,43.0990266,医療法人社団昇英会 整形外科新川駅いとかクリニック,北海道札幌市,北区,北海道札幌市北区北29条西15丁目3-8,,011-716-1117,10:11
141.3423441,43.1066483,医療法人社団慈Th会 小林内科クリニック,北海道札幌市,北区,北海道札幌市北区北38条西2丁目2-17,,011-709-5885,1:2:3:4:5:6:7:8:9:10:11:12
141.3388777,43.1076258,西村外科胃腸科,北海道札幌市,北区,北海道札幌市北区北40条西4丁目2-1,麻Thメディカルビル2階,011-757-1560,6:7:8
141.3388276,43.1084118,医療法人社団北耀会 あさぶ小児科,北海道札幌市,北区,北海道札幌市北区北40条西4丁目2-15,東光ストア麻Th店2階,011-717-3111,1:2:3:4:5:6:7:8:9:10:11:12
141.3728004,43.1419359,医療法人 しのろファミリークリニック,北海道札幌市,北区,北海道札幌市北区篠路2条10丁目12-1,,011-771-2800,1:2:3:4:5:6:7:8:9:10:11:12
141.355849,43.1442406,川島内科胃腸科,北海道札幌市,北区,北海道札幌市北区篠路2条3丁目5-10,,011-773-8233,8:11
141.3631984,43.1450241,医療法人社団篠路こどもクリニック,北海道札幌市,北区,北海道札幌市北区篠路3条6丁目4-32,,011-776-0776,1:2:3:4:5:6:7:8:9:10:11:12
141.3631038,43.145899,医療法人社団健志会 しのろ駅前医院,北海道札幌市,北区,北海道札幌市北区篠路4条6丁目11-17,,011-774-8388,1:2:3:4:5:6:7:8:9:10:11:12
141.3608594,43.1489402,医療法人社団大黒会 吉田医院,北海道札幌市,北区,北海道札幌市北区篠路5条5丁目7-1,,011-771-2020,3:6:7:8
141.3589204,43.1525147,社会医療法人康和会 札幌しらかば台篠路病院,北海道札幌市,北区,北海道札幌市北区篠路7条4丁目2-15,,011-773-0711,8
141.3641032,43.1552369,医療法人社団 五稜会病院,北海道札幌市,北区,北海道札幌市北区篠路9条6丁目2-3,,011-771-5660,8
141.3566815,43.157078,横山内科医院,北海道札幌市,北区,北海道札幌市北区篠路10条2丁目11-22,,011-771-1611,1:2:3:4:5:6:7:8:9:10:11
141.312011,43.1026311,医療法人社団 新川ファミリエ内科,北海道札幌市,北区,北海道札幌市北区新川3条7丁目1-10-1,,011-763-8118,3:5:8:10:11
141.3123054,43.1024783,医療法人アパンド みみ・はな・のど横浜クリニック,北海道札幌市,北区,北海道札幌市北区新川3条7丁目1-3,,011-765-4580,6:7:8:10:11
141.3240158,43.0983072,玄気堂漢方内科クリニック,北海道札幌市,北区,北海道札幌市北区新川4条1丁目3-3,ecoa新川クリニックモール2階,011-640-7740,8
141.3101746,43.1075553,医療法人社団 中鉢小児クリニック,北海道札幌市,北区,北海道札幌市北区新川4条10丁目7-13,,011-764-1118,1:2:3:4:5:6:7:9:10:11:12
141.2873842,43.1242916,社会医療法人延山会 北成病院,北海道札幌市,北区,北海道札幌市北区新川西3条2丁目10-1,,011-764-3021,8:11
141.3042026,43.1111629,医療法人社団 池田内科,北海道札幌市,北区,北海道札幌市北区新琴似1条13丁目1-7,,011-764-8833,1:2:3:4:5:6:7:8:9:10:11
141.3223543,43.1049202,医療法人社団 どい内科クリニック,北海道札幌市,北区,北海道札幌市北区新琴似1条3丁目3-13,,011-769-1200,1:3:5:8:10:11:12
141.3153602,43.1087026,大沼内科クリニック,北海道札幌市,北区,北海道札幌市北区新琴似1条8丁目22-17,,011-764-3110,1:2:3:4:5:6:7:8:9:10:11:12
141.3108437,43.1120048,飛騨内科クリニック,北海道札幌市,北区,北海道札幌市北区新琴似2条11丁目7-7,,011-769-8002,3:4:5:6:7:8
141.3134155,43.1140879,医療法人社団 阿部内科医院,北海道札幌市,北区,北海道札幌市北区新琴似3条11丁目7-24,,011-761-2395,1:2:3:4:5:6:7:8:9:10:11:12
141.3301564,43.1046871,医療法人研成会 札幌鈴木病院,北海道札幌市,北区,北海道札幌市北区新琴似3条1丁目1-27,,011-709-5511,
141.3300727,43.1091309,のびるこどもクリニック,北海道札幌市,北区,北海道札幌市北区新琴似5条2丁目1-9,,011-766-2206,1:2:3:4:5:6:7:9:10:11:12
141.3117316,43.1230617,医療法人社団 布施川内科医院,北海道札幌市,北区,北海道札幌市北区新琴似7条14丁目4-23,,011-764-2411,1:2:3:4:5:6:7:8:9:10:11:12
141.3224338,43.1173572,医療法人社団 おおさき内科,北海道札幌市,北区,北海道札幌市北区新琴似7条9丁目6-21,,011-766-0666,3:8:11
141.3153369,43.121823,医療法人社団 横山医院,北海道札幌市,北区,北海道札幌市北区新琴似8条13丁目1-4,,011-761-2484,1:2:3:4:5:6:7:8:9:10:11:12
141.3275614,43.1151466,医療法人社団 新琴似内科クリニック,北海道札幌市,北区,北海道札幌市北区新琴似8条6丁目1-1,,011-761-1076,8:11
141.3358579,43.1149608,勤医協札幌北区ぽぷらクリニック,北海道札幌市,北区,北海道札幌市北区新琴似10条2丁目1,,011-762-8811,11
141.3266804,43.119932,小児科高橋医院,北海道札幌市,北区,北海道札幌市北区新琴似10条8丁目3-1,,011-765-3820,1:2:3:4:5:6:7:8:9:10:11:12
141.3602547,43.135489,内科小児科さとう医院,北海道札幌市,北区,北海道札幌市北区太平10条7丁目2-7,,011-771-5251,1:2:3:4:5:6:7:8:9
141.3569521,43.1382802,太平高山内科クリニック,北海道札幌市,北区,北海道札幌市北区太平12条4丁目8-13,,011-770-2177,3:11
141.3800461,43.1562042,ひまわり内科小児科医院,北海道札幌市,北区,北海道札幌市北区拓北6条2丁目6-18,,011-771-8551,3:4:5:6:7:8:9
141.3376154,43.1239345,医療法人社団 こすげ内科医院,北海道札幌市,北区,北海道札幌市北区屯田2条3丁目8-10,,011-771-6101,3:4:5:11
141.342973,43.1291172,医療法人社団 たちばなこどもクリニック,北海道札幌市,北区,北海道札幌市北区屯田4条1丁目7-10,,011-773-7377,1:2:3:4:5:6:7:8:9:10:11:12
141.3370625,43.1274589,医療法人社団 ふるや内科,北海道札幌市,北区,北海道札幌市北区屯田4条3丁目2-10,,011-771-2211,1:2:3:4:5:6:7:8:9:10:11
141.3426615,43.1346802,医療法人社団 朋佑会札幌産科婦人科,北海道札幌市,北区,北海道札幌市北区屯田6条2丁目11-1,,011-774-0303,1:2:3:4:5:6:7:8:9:10:11:12
141.3327677,43.1359103,医療法人社団 とんでん小児科,北海道札幌市,北区,北海道札幌市北区屯田6条6丁目5-32,,011-773-6121,1:2:3:4:5:6:7:8:9:10:11:12
141.3397948,43.137927,メディック北札幌,北海道札幌市,北区,北海道札幌市北区屯田7条3丁目10-15,,011-775-5000,1:3:4:5:6:7:8:9:10:11:12
141.3417584,43.1419183,医療法人桃実会 にわ糖尿病・内科クリニック,北海道札幌市,北区,北海道札幌市北区屯田9条3丁目1-20,,011-790-7900,3:4:5:8
141.3647516,43.133656,医療法人社団 ゆりがはら内科 ケア＆クリニック,北海道札幌市,北区,北海道札幌市北区百合が原7丁目4-25,,011-770-7111,3:4:5:9
141.3675181,43.1319369,医療法人社団 札幌百合の会病院,北海道札幌市,北区,北海道札幌市北区百合が原11丁目186,,011-771-1501,1:2:3:4:5:6:7:9:10:11:12
141.4463559,42.9860123,医療法人社団澪和会 なかの小児科,北海道札幌市,清田区,北海道札幌市清田区美しが丘3条2丁目3-1,コートロティ美しが丘1階,011-881-1505,1:2:3:4:5:6:7:8:9:10:11:12
141.4548167,42.9797105,医療法人社団群仁会 保坂内科クリニック,北海道札幌市,清田区,北海道札幌市清田区美しが丘4条5丁目3-15,,011-884-7868,3:4:5:6:7:8:9:10:11
141.4261453,43.0089312,北海道医療Th協 札幌緑愛病院,北海道札幌市,清田区,北海道札幌市清田区北野1条1丁目6-30,,011-883-0121,3
141.4310561,43.0068316,医療法人社団エス・エス・ジェイ 札幌整形循環器病院,北海道札幌市,清田区,北海道札幌市清田区北野1条2丁目11-30,,011-881-1100,8
141.4344915,43.0124422,医療法人 ほし内科消化器科クリニック,北海道札幌市,清田区,北海道札幌市清田区北野3条2丁目13-57,,011-881-5551,3:8:10:11
141.45074,43.0141149,医療法人社団 小野内科医院,北海道札幌市,清田区,北海道札幌市清田区北野5条5丁目15-27,,011-883-8080,1:2:3:4:5:6:7:8:9:10:11:12
141.4529256,43.0181146,みき内科消化器きたのクリニック,北海道札幌市,清田区,北海道札幌市清田区北野7条5丁目12-20,,011-887-1771,11
141.4425832,43.0007604,さかもと内科消化器クリニック,北海道札幌市,清田区,北海道札幌市清田区清田1条4丁目4-30,,011-888-8181,8
141.4421194,43.0000077,医療法人社団 清田ウィメンズクリニック,北海道札幌市,清田区,北海道札幌市清田区清田1条4丁目5-30,,011-886-4103,8
141.4421194,43.0000077,医療法人社団 清田小児科医院,北海道札幌市,清田区,北海道札幌市清田区清田1条4丁目5-30,清田総合医療センタービル1階,011-881-5018,1:2:3:4:5:6:7:8:9:10:11:12
141.4281064,43.0051567,医療法人社団 サン内科外科医院,北海道札幌市,清田区,北海道札幌市清田区清田2条1丁目8-1,,011-881-3322,1:2:3:4:5:6:7:8:9:11
141.43079,42.9976271,医療法人社団 鈴木内科医院,北海道札幌市,清田区,北海道札幌市清田区清田4条2丁目10-25,,011-882-2233,3:4:5:10:11
141.4603407,42.989129,医療法人徳洲会 札幌南徳洲会病院,北海道札幌市,清田区,北海道札幌市清田区里塚1条2丁目20-1,,011-883-0602,11
141.4390975,42.9991188,社会医療法人 札幌清田病院,北海道札幌市,清田区,北海道札幌市清田区真栄1条1丁目1-1,,011-883-6111,8:11
141.4377563,42.9931973,医療法人北武会 美しが丘病院,北海道札幌市,清田区,北海道札幌市清田区真栄61番地1,,011-883-8881,6:7:8:11
141.453977,42.9944198,医療法人社団恒仁会 ひらおか公園小児科,北海道札幌市,清田区,北海道札幌市清田区平岡2条5丁目2,イオンタウン平岡,011-888-6000,1:2:3:4:5:6:7:8:9:10:11:12
141.4538899,43.0097876,医療法人社団一揚会 あだち内科クリニック,北海道札幌市,清田区,北海道札幌市清田区平岡6条2丁目2-10,,011-886-3338,8:11
141.4538899,43.0097876,医療法人社団 みずきこどもクリニック,北海道札幌市,清田区,北海道札幌市清田区平岡6条2丁目2-10,,011-886-9777,1:2:3:4:5:6:7:8:9:10:11:12
141.4594257,43.0077824,医療法人社団 ひらおか内科胃腸科,北海道札幌市,清田区,北海道札幌市清田区平岡6条3丁目10-1,,011-885-2110,1:2:3:4:5:6:7:8:9:10:11
141.4693412,43.0117434,医療法人社団 平岡公園整形外科・消化器科クリニック,北海道札幌市,清田区,北海道札幌市清田区平岡公園東1丁目12-12,,011-888-8808,8
141.4732275,43.0035582,医療法人社団 すえおかこどもクリニック,北海道札幌市,清田区,北海道札幌市清田区平岡公園東5丁目12-10,メディカルビル平岡公園東1階,011-888-1515,1:2:3:4:5:6:7:8:9:10:11:12
141.4732275,43.0035582,ふじた内科循環器クリニック,北海道札幌市,清田区,北海道札幌市清田区平岡公園東5丁目12-10,メディカルビル平岡公園東2階,011-888-7272,8:9:11
141.3198703,42.9624474,医療法人社団延寿会 阿部内科クリニック,北海道札幌市,南区,北海道札幌市南区石山1条7丁目7-7,,011-592-0077,9:11
141.3184455,42.960231,医療法人社団信洋会 石山メンタルクリニック,北海道札幌市,南区,北海道札幌市南区石山2条8丁目2-12,,011-591-7167,3
141.3442595,42.9713249,医療法人社団 竹嶋内科クリニック,北海道札幌市,南区,北海道札幌市南区石山東1丁目4-26,,011-591-1112,3
141.3424182,42.9667531,医療法人社団 芸術の森泌尿器科,北海道札幌市,南区,北海道札幌市南区石山東3丁目1-31,,011-591-8686,12
141.3299823,43.0002376,医療法人社団 もいわ内科医院,北海道札幌市,南区,北海道札幌市南区川沿1条3丁目3-25,,011-571-5561,1:2:3:4:5:6:7:8:9:10:11:12
141.3382398,42.9985964,医療法人為久会 札幌共立五輪橋病院,北海道札幌市,南区,北海道札幌市南区川沿2条1丁目2-54,,011-571-8221,9:11
141.3315711,42.9925497,医療法人社団もなみ もなみクリニック,北海道札幌市,南区,北海道札幌市南区川沿5条3丁目2-1,,011-578-5775,8
141.3315712,42.9923719,医療法人社団 川沿中央医院,北海道札幌市,南区,北海道札幌市南区川沿5条3丁目2-3,,011-571-7821,6:7:8:9:11:12
141.3339823,42.9872337,ほりえ内科クリニック,北海道札幌市,南区,北海道札幌市南区川沿8条2丁目1-8,吉田ビル1階,011-571-6532,3:8:9:10:11:12
141.3339823,42.9872337,おおさわ小児科医院,北海道札幌市,南区,北海道札幌市南区川沿8条2丁目1-8,吉田ビル3階,011-571-5001,1:2:3:4:5:6:7:8:9:10:11:12
141.33641,42.9784876,なかの内科・消化器内科クリニック,北海道札幌市,南区,北海道札幌市南区川沿14条2丁目1-3,,011-571-0725,8
141.3658809,43.0158315,あまみや小児科医院,北海道札幌市,南区,北海道札幌市南区澄川3条2丁目4-15,澄川メディカル1F,011-831-5300,1:2:3:4:5:6:7:8:9:10:12
141.3659226,43.0139901,酒井内科消化器科クリニック,北海道札幌市,南区,北海道札幌市南区澄川3条3丁目4-12,,011-831-0820,3:4:5:8
141.3674006,43.0074435,医療法人一光会 幸内科クリニック,北海道札幌市,南区,北海道札幌市南区澄川4条6丁目7-35,,011-837-7320,1:2:3:4:5:6:7:8:9:10:11:12
141.3740526,43.0106322,医療法人社団千寿会 千秋内科医院,北海道札幌市,南区,北海道札幌市南区澄川6条4丁目11-7,,011-812-8111,1:2:3:4:5:6:7:8:9:10:11:12
141.3739946,43.0054189,たむら内科クリニック,北海道札幌市,南区,北海道札幌市南区澄川6条7丁目3-5,,011-583-1161,1:2:3:4:5:9
141.322894,42.9962518,医療法人社団 はまだ内科・神経内科クリニック,北海道札幌市,南区,北海道札幌市南区中ノ沢1丁目1-4,,011-578-1535,3:4:5:6:7:8:9:10:11
141.3091294,42.9612972,ふじのさわ内科クリニック,北海道札幌市,南区,北海道札幌市南区藤野2条2丁目1-15,,011-591-8416,8
141.2972358,42.9619773,十五島内科医院,北海道札幌市,南区,北海道札幌市南区藤野2条6丁目1-5,,011-591-8828,8
141.2791179,42.9615157,社会医療法人康和会 札幌しらかば台南病院,北海道札幌市,南区,北海道札幌市南区藤野2条11丁目7-1,,011-596-2621,8:11
141.297386,42.961033,医療法人大地 小笠原クリニック藤野診療所,北海道札幌市,南区,北海道札幌市南区藤野3条6丁目2-1,コープさっぽろ藤野店2階,011-592-5335,11
141.2941389,42.9615773,医療法人社団 板倉小児クリニック,北海道札幌市,南区,北海道札幌市南区藤野3条7丁目1-1,,011-591-0611,1:2:3:4:5:6:7:8:9:10:11:12
141.3541054,42.9856318,医療法人社団FOUR SEASONS 真駒内たかの内科,北海道札幌市,南区,北海道札幌市南区真駒内泉町3丁目11-9,,011-588-8777,8
141.349547,42.9973247,医療法人社団 真駒内キッズクリニック,北海道札幌市,南区,北海道札幌市南区真駒内上町1丁目1-25,グリーンプラザ真駒内公園ビル1階,011-582-8884,1:2:3:4:5:6:7:8:9:10:11:12
141.3497973,42.9925225,医療法人社団 阿部小児科医院,北海道札幌市,南区,北海道札幌市南区真駒内緑町1丁目3-10,,011-582-0512,1:2:3:4:5:6:7:8:9:10:11:12
141.3519279,42.9845707,露口内科・消化器内科クリニック,北海道札幌市,南区,北海道札幌市南区真駒内南町1丁目7-12,,011-582-0811,3:5:6:7:8:11:12
141.3469659,43.0158922,中根敏得リハビリテーション内科小児科医院,北海道札幌市,南区,北海道札幌市南区南32条西10丁目2-1,,011-582-3131,3:4:5:9
141.3423336,43.0053597,医療法人礼風会 五輪橋マタニティクリニック,北海道札幌市,南区,北海道札幌市南区南39条西11丁目1-30,,011-585-3110,1:2:3:4:5:6:7:8:9:10:11:12
141.3068185,43.0790086,中村小児科医院,北海道札幌市,西区,北海道札幌市西区琴似1条2丁目5-6,琴似一番館,011-642-1650,1:2:3:4:5:6:7:8:9:10:11:12
141.3046383,43.0757977,医療法人社団 森谷内科クリニック,北海道札幌市,西区,北海道札幌市西区琴似1条4丁目2-20,,011-643-6533,8:11
141.3042494,43.0768393,まきぐち内科・循環器科クリニック,北海道札幌市,西区,北海道札幌市西区琴似1条4丁目4-20,笹川ビル3階,011-618-1333,8
141.3064544,43.0815972,医療法人社団慈昂会 琴似駅前内科クリニック,北海道札幌市,西区,北海道札幌市西区琴似2条1丁目1-20,琴似タワープラザ2階,011-622-3531,8:11
141.3064544,43.0815972,医療法人社団 ともこレディースクリニック,北海道札幌市,西区,北海道札幌市西区琴似2条1丁目1-20,琴似タワープラザ2階,011-641-8181,8
141.3031716,43.0786668,医療法人社団 琴似産科婦人科クリニック,北海道札幌市,西区,北海道札幌市西区琴似2条3丁目2-30,,011-612-5611,8
141.3031716,43.0786668,医療法人社団 琴似小児科クリニック,北海道札幌市,西区,北海道札幌市西区琴似2条3丁目2-30,,011-641-7551,1:2:3:4:5:6:7:8:9:10:11:12
141.3033606,43.0766753,ことに内科クリニック,北海道札幌市,西区,北海道札幌市西区琴似2条4丁目2-1,,011-633-1717,8
141.3018885,43.0771502,医療法人社団 坂本医院,北海道札幌市,西区,北海道札幌市西区琴似2条4丁目3-10,,011-621-0808,8
141.3025189,43.0759587,おおた内科クリニック,北海道札幌市,西区,北海道札幌市西区琴似2条5丁目1-3,北幸ビル2階,011-643-5311,11
141.3027409,43.0816497,医療法人社団友善会 琴似ファミリークリニック,北海道札幌市,西区,北海道札幌市西区琴似4条2丁目1番2号,コルテナⅡ 1階,011-612-0333,10:11
141.2802597,43.0765965,医療法人社団 北浜胃腸科・内科,北海道札幌市,西区,北海道札幌市西区西野2条4丁目3-15,,011-663-3311,3:11
141.2827375,43.0742662,医療法人社団杏仁会 近内科クリニック,北海道札幌市,西区,北海道札幌市西区西野3条2丁目1-38,,011-664-3611,1:2:3:4:5:6:7:9:10:11:12
141.2751351,43.0764491,医療法人社団 細田こどもクリニック,北海道札幌市,西区,北海道札幌市西区西野3条6丁目2-7,,011-667-8830,1:2:3:4:5:6:7:8:9:10:11:12
141.2750544,43.0786072,医療法人社団 石塚内科消化器科,北海道札幌市,西区,北海道札幌市西区西野3条7丁目3-1,,011-661-0403,1:2:3:4:5:6:7:8:9:10:11
141.2700074,43.0810458,医療法人社団 後藤田医院,北海道札幌市,西区,北海道札幌市西区西野3条9丁目10-37,,011-663-8170,1:2:3:4:5:6:7:8:9:10:11:12
141.2765131,43.068575,医療法人にしの内科クリニック,北海道札幌市,西区,北海道札幌市西区西野5条2丁目8-37,,011-788-6726,3:11
141.2687884,43.0721689,医療法人社団 西野六条クリニック,北海道札幌市,西区,北海道札幌市西区西野6条7丁目1-1,,011-663-3651,3:8:10:11
141.263439,43.0691524,医療法人社団法真会 ひしかわ内科クリニック,北海道札幌市,西区,北海道札幌市西区西野8条8丁目1-1,,011-667-3336,1:2:3:4:5:6:7:8:9:10:11
141.2892672,43.080874,医療法人社団啓愛会 西さっぽろ小児科,北海道札幌市,西区,北海道札幌市西区西町北7丁目2-11,西さっぽろメディカル2階,011-661-4211,1:2:3:4:5:6:7:8:9:10:11:12
141.2892672,43.080874,医療法人社団糖仁会 あべ内科クリニック,北海道札幌市,西区,北海道札幌市西区西町北7丁目2-11,西さっぽろメディカル3階,011-666-7301,8
141.2851396,43.081621,医療法人社団 札幌西レディースクリニック,北海道札幌市,西区,北海道札幌市西区西町北11丁目1-5,,011-661-3535,8
141.276815,43.0864564,勤医協西区ひだまりクリニック,北海道札幌市,西区,北海道札幌市西区西町北19丁目1-3,,011-671-5115,11
141.2756428,43.0878062,医療法人社団 宮の沢レディースクリニック,北海道札幌市,西区,北海道札幌市西区西町北20丁目2-12,SR宮の沢メディカルⅡビル2階,011-666-0050,8
141.2763233,43.0881062,医療法人社団 松永内科クリニック,北海道札幌市,西区,北海道札幌市西区西町北20丁目3-10,SR宮の沢メディカルビル3階,011-669-3666,8:11
141.2763233,43.0881062,医療法人 宮の沢小池こどもクリニック,北海道札幌市,西区,北海道札幌市西区西町北20丁目3-10,SR宮の沢メディカルビル3階,011-669-5551,1:2:3:4:5:6:7:8:9:10:11:12
141.288187,43.0764522,医療法人社団 小児科西町クリニック,北海道札幌市,西区,北海道札幌市西区西町南5丁目13,,011-663-3223,1:2:3:4:5:6:7:8:9:10:11:12
141.3096076,43.0712347,藤屋医院,北海道札幌市,西区,北海道札幌市西区二十四軒3条5丁目4-28,,011-621-7260,8
141.3083017,43.0775339,琴似ハート内科・透析クリニック,北海道札幌市,西区,北海道札幌市西区二十四軒4条2丁目9-10,,011-688-8810,9
141.3072075,43.0763506,社会医療法人孝仁会 札幌第一病院,北海道札幌市,西区,北海道札幌市西区二十四軒4条3丁目4-26,,011-611-6201,11
141.3071599,43.0822582,医療法人新産健会 ことに・メディカル・サポート・クリニック,北海道札幌市,西区,北海道札幌市西区八軒1条西1丁目2-10,ザ・タワープレイス1階,011-631-3101,3:8:11
141.3071599,43.0822582,医療法人親和 すずらん小児科,北海道札幌市,西区,北海道札幌市西区八軒1条西1丁目2-10,ザ・タワープレイス1階,011-633-8088,1:2:3:4:5:6:7:8:9:10:11:12
141.3071599,43.0822582,洞田内科クリニック,北海道札幌市,西区,北海道札幌市西区八軒1条西1丁目2-10,ザ・タワープレイス2階,011-632-0255,8
141.3100624,43.0829528,医療法人社団明Th会 イムス札幌消化器中央総合病院,北海道札幌市,西区,北海道札幌市西区八軒2条西1丁目1-1,,011-611-1391,12
141.3157783,43.0863499,医療法人社団 カワカミウイメンズクリニック,北海道札幌市,西区,北海道札幌市西区八軒5条東1丁目6-19,,011-641-6507,8
141.3123228,43.0901854,つちだ消化器循環器内科,北海道札幌市,西区,北海道札幌市西区八軒7条西3丁目1-1,,011-640-5532,1:2:3:4:5:6:7:8:9:10:11:12
141.3033202,43.1018112,ゆきのかなでクリニック,北海道札幌市,西区,北海道札幌市西区八軒10条西12丁目4-8,,011-213-9351,12
141.2902141,43.0818684,医療法人札幌がんフォレスト 癒しの森内科・消化器内科クリニック,北海道札幌市,西区,北海道札幌市西区発寒2条5丁目6-5,,011-668-1184,8
141.2926833,43.0842821,医療法人社団 いとう内科・胃腸科,北海道札幌市,西区,北海道札幌市西区発寒4条4丁目1-18,,011-661-1000,8
141.2871363,43.0881647,医療法人聖愛会 発寒中央病院,北海道札幌市,西区,北海道札幌市西区発寒5条6丁目10-1,,011-661-2111,1:2:3:4:5:6:7:8:9:10:11:12
141.2937635,43.0893871,医療法人社団 はねだ内科クリニック,北海道札幌市,西区,北海道札幌市西区発寒6条3丁目2-10,,011-666-2227,6:7:8:10:11
141.2776342,43.0892811,内科・消化器内科 Ｋクリニック,北海道札幌市,西区,北海道札幌市西区発寒6条9丁目2-15,ニッセ宮の沢2階,011-667-7007,11
141.2771508,43.0929529,医療法人社団 いなべ医院,北海道札幌市,西区,北海道札幌市西区発寒6条11丁目7-18,,011-662-1389,1:2:3:4:5:6:7:9
141.2715761,43.0944777,医療法人社団宮の沢総合クリニック,北海道札幌市,西区,北海道札幌市西区発寒6条13丁目1-22,,011-671-7710,8
141.2749759,43.0953776,かなや内科クリニック,北海道札幌市,西区,北海道札幌市西区発寒7条12丁目3-46,発寒クリニックビル1F,011-669-6000,11
141.2997378,43.0916317,医療法人社団 ふるた小児科クリニック,北海道札幌市,西区,北海道札幌市西区発寒11条1丁目10-75,,011-671-1188,1:2:3:4:5:6:7:8:9:10:11:12
141.2885856,43.0992995,医療法人社団 鉄工団地診療所,北海道札幌市,西区,北海道札幌市西区発寒12条5丁目3-20,,011-661-1261,1:2:3:4:5:6:7:8:9:10:11:12
141.294049,43.0991832,医療法人社団 太田内科歯科,北海道札幌市,西区,北海道札幌市西区発寒13条3丁目7-45,,011-664-6780,8
141.2702225,43.0582681,医療法人社団 百石内科循環器クリニック,北海道札幌市,西区,北海道札幌市西区福井2丁目3-16,,011-663-3885,1:2:3:4:5:6:7:8:9:10:11:12
141.2580898,43.0593759,医療法人社団 首藤内科,北海道札幌市,西区,北海道札幌市西区平和1条4丁目1-7,,011-664-3737,6:7:8:12
141.2746623,43.0877173,クリニックもりや,北海道札幌市,西区,北海道札幌市西区宮の沢1条1丁目1-3,,011-669-8003,3:4:5:6:7:8:9:12
141.2754983,43.08882,社会医療法人孝仁会札幌西孝仁会クリニック,北海道札幌市,西区,北海道札幌市西区宮の沢1条1丁目1-30,,011-590-0322,8
141.2696791,43.0940527,医療法人社団 にこにこ小児科クリニック,北海道札幌市,西区,北海道札幌市西区宮の沢1条4丁目7-20,輪島ビル2階,011-667-3311,1:2:4:5:6:7:8:9:10:11:12
141.2608438,43.090828,医療法人社団 ひろ内科循環器科クリニック,北海道札幌市,西区,北海道札幌市西区宮の沢3条5丁目24-10,,011-671-2727,3:5:8
141.3003639,43.0714758,ため小児科医院,北海道札幌市,西区,北海道札幌市西区山の手2条1丁目6-14,,011-611-3718,1:2:3:4:5:6:7:8:9:10:11:12
141.2973201,43.0666984,みずしま内科クリニック,北海道札幌市,西区,北海道札幌市西区山の手2条6丁目3-8,,011-632-6600,1:2:3:4:5:6:7:8:9:10:12
141.2900459,43.0642456,クリニークアンジェ牧山内科,北海道札幌市,西区,北海道札幌市西区山の手3条12丁目1-34,,011-632-0123,3:5:6:7:8:9:10:11
141.2894123,43.0688532,独立行政法人国立病院機構 北海道医療センター,北海道札幌市,西区,北海道札幌市西区山の手5条7丁目1-1,,011-611-8111,1:2:3:4:5:6:7:8:9:10:11:12
141.2867986,43.069853,医療法人 札幌山の上病院,北海道札幌市,西区,北海道札幌市西区山の手6条9丁目1-1,,011-621-1200,11
141.4095423,43.0362857,医療法人社団栄仁会 栄通わたなべ内科皮ふ科,北海道札幌市,白石区,北海道札幌市白石区栄通8丁目2-1,,011-858-3311,8
141.4240858,43.0300342,医療法人社団 小路内科消化器クリニック,北海道札幌市,白石区,北海道札幌市白石区栄通15丁目9-35,,011-853-1331,1:2:3:4:5:6:7:8:9:10:11:12
141.4299104,43.0285458,協全内科クリニック,北海道札幌市,白石区,北海道札幌市白石区栄通17丁目13-13,,011-852-3181,1:2:3:4:5:6:7:9:10:11:12
141.4343685,43.0260629,医療法人社団 やまうち内科クリニック,北海道札幌市,白石区,北海道札幌市白石区栄通19丁目1-1,,011-851-5600,1:2:3:4:5:6:7:8:12
141.4404903,43.0236996,医療法人孝友会 ごう内科クリニック,北海道札幌市,白石区,北海道札幌市白石区栄通21丁目1-16,,011-850-5050,3:4:5:8:9
141.4404903,43.0236996,なかの耳鼻咽喉科医院,北海道札幌市,白石区,北海道札幌市白石区栄通21丁目1-16,丁目22-35,011-854-4133,9
141.4498658,43.0475059,医療法人社団 大屋医院,北海道札幌市,白石区,北海道札幌市白石区川下2条7丁目2-5,,011-873-1123,1:2:3:4:5:6:7:8:9:10:11:12
141.4454411,43.04885,医療法人菊郷会 石橋胃腸病院,北海道札幌市,白石区,北海道札幌市白石区川下3条4丁目2-1,,011-872-5811,8
141.4483574,43.0523331,川下ばく内科,北海道札幌市,白石区,北海道札幌市白石区川下4条5丁目4-14,,011-374-4389,1:2:3:4:5:6:7:8:9:10:11:12
141.4392876,43.0714084,社会福祉法人北翔会 札幌あゆみの園,北海道札幌市,白石区,北海道札幌市白石区川北2254番地1,,011-879-5555,1:2:3:4:5:6:7:8:9:10:11:12
141.438719,43.0586542,医療法人社団 川北内科循環器科医院,北海道札幌市,白石区,北海道札幌市白石区川北2条3丁目2-25,,011-872-4533,1:2:3:4:5:6:7:8:9:10:11:12
141.3695089,43.0568745,医療法人社団 木村医院,北海道札幌市,白石区,北海道札幌市白石区菊水1条1丁目3-33,,011-811-4403,6:7:8
141.372959,43.0574035,菊水内科循環器クリニック,北海道札幌市,白石区,北海道札幌市白石区菊水3条2丁目4-1,ニューギン札幌ビル２F,011-827-6688,11
141.373178,43.0595049,勤医協札幌病院,北海道札幌市,白石区,北海道札幌市白石区菊水4条1丁目9-22,,011-811-2246,1:2:3:4:5:6:7:8:9:10:11:12
141.3747696,43.05863,独立行政法人国立病院機構 北海道がんセンター,北海道札幌市,白石区,北海道札幌市白石区菊水4条2丁目3-54,,011-811-9111,8
141.3762111,43.0604048,みなみハート内科クリニック,北海道札幌市,白石区,北海道札幌市白石区菊水6条2丁目1-34,シュタットハウス札幌1階,011-818-3737,1:2:3:4:5:6:7:8:9:10:11:12
141.3873491,43.0613467,中島内科胃腸科クリニック,北海道札幌市,白石区,北海道札幌市白石区菊水上町1条3丁目36,,011-811-2726,1:2:3:4:5:6:7:8:9:11
141.4065575,43.0707797,医療法人社団 みんなのこどもクリニック,北海道札幌市,白石区,北海道札幌市白石区菊水元町5条2丁目2-4,Ucラポール1F,011-876-1717,1:2:3:4:5:6:7:8:9:10:11:12
141.4063993,43.0704575,医療法人社団薫風会 青空たけうち内科クリニック,北海道札幌市,白石区,北海道札幌市白石区菊水元町5条2丁目2-40,,011-872-3558,1:2:3:4:5:6:7:8:9:10:11:12
141.4073104,43.0686216,医療法人菊郷会 札幌センチュリー病院,北海道札幌市,白石区,北海道札幌市白石区菊水元町5条3丁目5-10,,011-871-1121,8
141.4048693,43.0639692,医療法人社団 野村内科医院,北海道札幌市,白石区,北海道札幌市白石区北郷2条1丁目2-4,,011-873-3476,3:8
141.4136852,43.0589366,医療法人社団 まつもと小児科,北海道札幌市,白石区,北海道札幌市白石区北郷2条4丁目3-5,北郷メディカルビル2階,011-871-2277,1:2:3:4:5:6:7:8:9:10:11:12
141.4181292,43.0568202,北郷医院,北海道札幌市,白石区,北海道札幌市白石区北郷3条5丁目13-1,,011-873-1960,3:4:5:8:9:10:11
141.4228234,43.0542484,医療法人社団日吉会 そねざき内科小児科医院,北海道札幌市,白石区,北海道札幌市白石区北郷3条7丁目1-15,,011-873-2227,1:2:3:4:5:6:7:8:9:10:11:12
141.3812667,43.0490422,医療法人社団誠医会 よつばクリニック,北海道札幌市,白石区,北海道札幌市白石区東札幌1条2丁目1-3,,011-825-1055,8
141.3845884,43.0553333,医療法人社団毬会 内科丹田クリニック,北海道札幌市,白石区,北海道札幌市白石区東札幌4条1丁目1-1,イーアス札幌Bタウン2階,011-817-1188,8:11
141.3894187,43.0511032,医療法人社団 きよみず公園クリニック,北海道札幌市,白石区,北海道札幌市白石区東札幌4条3丁目6-1,,011-813-6311,1:3:4:5:6:7:9:10:11:12
141.3911213,43.0512227,医療法人社団 響 さくら内科クリニック,北海道札幌市,白石区,北海道札幌市白石区東札幌4条4丁目1-18,2階,011-817-2171,1:2:3:4:5:6:7:8:12
141.3927406,43.0507172,川端医院,北海道札幌市,白石区,北海道札幌市白石区東札幌5条4丁目3-2,,011-831-2702,1:2:3:4:5:6:7:8:9:10:11:12
141.3947154,43.0508784,医療法人社団明日佳 白石明日佳病院,北海道札幌市,白石区,北海道札幌市白石区東札幌5条5丁目2-5,,011-823-5151,10:11
141.398454,43.0482732,医療法人社団明珠会 札幌白石産科婦人科病院,北海道札幌市,白石区,北海道札幌市白石区東札幌5条6丁目6-28,,011-862-7211,8
141.3992205,43.0490676,社会医療法人北楡会 札幌北楡病院,北海道札幌市,白石区,北海道札幌市白石区東札幌6条6丁目5-1,,011-865-0111,1:2:3:4:5:6:7:8:9:10:11:12
141.3971514,43.0462844,医療法人社団智愛会 なかた小児科,北海道札幌市,白石区,北海道札幌市白石区南郷通1丁目北1-1,白石メディカル2階,011-864-8668,1:2:3:4:5:6:7:8:9:10:11:12
141.4010316,43.044868,医療法人社団 白石こどもクリニック,北海道札幌市,白石区,北海道札幌市白石区南郷通2丁目北2-1,ル・ノール南郷街,011-865-7302,1:2:3:4:5:6:7:8:9:10:12
141.4098393,43.0410992,北海道医療Th協 緑愛クリニック,北海道札幌市,白石区,北海道札幌市白石区南郷通6丁目北3-24,,011-868-8866,3:5:8
141.412503,43.03938,秀愛会内科消化器科クリニック,北海道札幌市,白石区,北海道札幌市白石区南郷通8丁目南5-1,第2タヂカビル1階,011-860-7676,3:4:5:8
141.4180832,43.0373248,医療法人社団 山中たつる小児科,北海道札幌市,白石区,北海道札幌市白石区南郷通11丁目南3-9,,011-866-5555,1:2:3:4:5:6:7:8:9:10:11:12
141.4346904,43.031504,医療法人社団清香会 おおしま内科・胃腸科クリニック,北海道札幌市,白石区,北海道札幌市白石区南郷通18丁目北3-28,,011-866-5511,1:2:3:4:5:6:7:8:9:10:11:12
141.4427066,43.0262689,ＥＶＥウィミンズクリニック,北海道札幌市,白石区,北海道札幌市白石区南郷通21丁目南5-41,,011-866-0808,1:2:3:4:5:6:7:8:9:10:11:12
141.4117746,43.0534703,医療法人 白石中央病院,北海道札幌市,白石区,北海道札幌市白石区平和通3丁目北2-3,,011-861-8171,3:4:5:6:7:8:9
141.4172744,43.0470877,勤医協平和通りクリニック,北海道札幌市,白石区,北海道札幌市白石区平和通7丁目南5-1,,011-864-0912,12
141.4216574,43.0452436,医療法人社団 ひらい内科小児科,北海道札幌市,白石区,北海道札幌市白石区平和通9丁目南3-1,,011-861-5122,1:2:3:4:5:6:7:8:9:10:11:12
141.417497,43.0394218,医療法人社団佐分利内科医院,北海道札幌市,白石区,北海道札幌市白石区本郷通10丁目南1-23,,011-864-1751,8
141.4224051,43.036275,医療法人社団 みどり内科クリニック,北海道札幌市,白石区,北海道札幌市白石区本郷通13丁目南4-27,ムトウビル2階,011-866-4563,10:11
141.4029756,43.0515369,医療法人社団 渡辺一彦小児科医院,北海道札幌市,白石区,北海道札幌市白石区本通（南）1丁目南1-13,,011-865-8688,1:3:4:5:6:7:8:9:10:11:12
141.400554,43.0501636,医療法人社団慈昂会 白石内科クリニック,北海道札幌市,白石区,北海道札幌市白石区中央1条7丁目10-30,白石中央メディカルビル１Ｆ,011-868-2711,8:10:11
141.4063086,43.0504649,医療法人信佑会 吉田記念病院,北海道札幌市,白石区,北海道札幌市白石区本通2丁目南5-10,,011-864-2125,3:8:11
141.407584,43.049723,医療法人社団 広川内科クリニック,北海道札幌市,白石区,北海道札幌市白石区本通3丁目南2-38,,011-861-2026,3:4:5:6:8:11
141.4173746,43.0446407,松田内科循環器クリニック,北海道札幌市,白石区,北海道札幌市白石区本通8丁目南1-30,,011-867-8000,6:7:8:11:12
141.4212716,43.0407607,内科胃腸科クリニック長尾医院,北海道札幌市,白石区,北海道札幌市白石区本通（南）11丁目南1-9,,011-861-4696,3:4:5:8:10:11
141.4341929,43.0365285,医療法人社団 小川医院,北海道札幌市,白石区,北海道札幌市白石区本通16丁目北11-14,,011-864-7995,1:2:3:4:5:6:7:8:9:10:11:12
141.2386354,43.1239044,医療法人社団恵幼会 わたなべ小児科・アレルギー科クリニック,北海道札幌市,手稲区,北海道札幌市手稲区曙1条1丁目1-25,,011-699-1000,1:2:3:4:5:6:7:8:9:10:11:12
141.2378407,43.1271873,社会医療法人延山会 西成病院,北海道札幌市,手稲区,北海道札幌市手稲区曙2条2丁目2-27,,011-681-9321,8
141.2355573,43.1308173,医療法人社団喜倜会 おちあい内科・消化器内科医院,北海道札幌市,手稲区,北海道札幌市手稲区曙4条3丁目17-21,,011-685-5858,5:8:11
141.236232,43.135339,さかいの小児科,北海道札幌市,手稲区,北海道札幌市手稲区曙6条2丁目2-16,,011-691-9131,1:2:3:4:5:6:7:8:9:10:11:12
141.2365625,43.1351585,医療法人社団 手稲あけぼのレディースクリニック,北海道札幌市,手稲区,北海道札幌市手稲区曙6条2丁目2-10,,011-695-4103,8
141.2307957,43.1444878,医療法人明日風こどもクリニック,北海道札幌市,手稲区,北海道札幌市手稲区明日風5丁目9-1,,011-685-0122,1:2:3:4:5:6:7:8:9:10:11:12
141.2165947,43.1312167,医療法人社団 上原内科クリニック,北海道札幌市,手稲区,北海道札幌市手稲区稲穂1条7丁目2-21,,011-681-7070,3:8
141.2141173,43.1284892,医療法人社団弘誓会 菊地内科・呼吸器科,北海道札幌市,手稲区,北海道札幌市手稲区稲穂2条7丁目1-5,稲穂メディカルコア,011-694-1881,11
141.2110564,43.1287057,北海道立子ども総合医療・療育センター,北海道札幌市,手稲区,北海道札幌市手稲区金山1条1丁目240番6,,011-691-5696,1:2:3:4:5:6:7:8:9:10:11:12
141.208476,43.1304638,医療法人社団隆恵会わだ内科外科クリニック,北海道札幌市,手稲区,北海道札幌市手稲区金山1条2丁目1-16,,011-699-1500,11
141.2700502,43.1150339,医療法人 かわばた内科クリニック,北海道札幌市,手稲区,北海道札幌市手稲区新発寒4条5丁目13-13,,011-688-2525,1:2:3:4:5:6:7:8:10:11
141.2718777,43.1151117,医療法人社団友善会 新発寒ファミリークリニック,北海道札幌市,手稲区,北海道札幌市手稲区新発寒5条5丁目6-1,,011-691-2100,3:5:11
141.2431186,43.1196217,医療法人社団 むらさき内科・循環器クリニック,北海道札幌市,手稲区,北海道札幌市手稲区手稲本町1条3丁目3-1,メディカルスクエア手稲２階,011-682-3222,3:8:10:11
141.2431186,43.1196217,すぎはら小児科・アレルギー科,北海道札幌市,手稲区,北海道札幌市手稲区手稲本町1条3丁目3-1,メディカルスクエア手稲3階,011-681-2369,1:2:3:4:5:6:7:8:9:10:11:12
141.2363856,43.1213879,医療法人 はだ産婦人科クリニック,北海道札幌市,手稲区,北海道札幌市手稲区手稲本町2条5丁目3-12,,011-685-1103,1:2:3:4:5:6:7:8:9:10:11:12
141.2643328,43.1347122,医療法人社団稲信会 まえだ森林クリニック,北海道札幌市,手稲区,北海道札幌市手稲区手稲前田496番地11,,011-685-6060,8:11
141.210103,43.1414931,医療法人北武会 北都病院,北海道札幌市,手稲区,北海道札幌市手稲区手稲山口550番２,,011-683-6667,11
141.254202,43.10864,医療法人社団 香友会富丘まごころ内科クリニック,北海道札幌市,手稲区,北海道札幌市手稲区富丘1条4丁目1-1,,011-699-8881,3:8:11
141.2574571,43.1113064,医療法人社団 澤井内科循環器クリニック,北海道札幌市,手稲区,北海道札幌市手稲区富丘1条4丁目5-33,マックスメディカルビル2階,011-695-0112,8
141.2458467,43.1145418,医療法人社団 わたなべクリニック,北海道札幌市,手稲区,北海道札幌市手稲区富丘2条7丁目2-6,,011-681-1200,8:9:11
141.2463465,43.1146946,さくらレディースクリニック,北海道札幌市,手稲区,北海道札幌市手稲区富丘2条7丁目6-15,,011-695-8118,8:10:11
141.2588575,43.1027796,おのでら内科クリニック,北海道札幌市,手稲区,北海道札幌市手稲区西宮の沢2条4丁目1-1,,011-695-5508,1:2:3:4:5:6:7:8:9:10:11:12
141.2648821,43.0993577,ささき内科クリニック,北海道札幌市,手稲区,北海道札幌市手稲区西宮の沢3条1丁目12-25,,011-667-2000,3:8:10:11
141.2596021,43.0966774,医療法人育愛会 愛産婦人科,北海道札幌市,手稲区,北海道札幌市手稲区西宮の沢4条2丁目1-1,,011-669-5503,8
141.2087092,43.132783,医療法人社団 星置駅前内科医院,北海道札幌市,手稲区,北海道札幌市手稲区星置1条4丁目2-12,星置駅前メディカル,011-694-1451,8
141.2087092,43.132783,医療法人社団 たかだ小児クリニック,北海道札幌市,手稲区,北海道札幌市手稲区星置1条4丁目2-12,星置駅前メディカル,011-694-8122,1:2:3:4:5:6:7:8:9:10:11:12
141.2090563,43.1334329,医療法人啓眞会くにちか内科クリニック,北海道札幌市,手稲区,北海道札幌市手稲区星置1条4丁目7-2,,011-688-1133,3:8:11
141.2089367,43.1365964,医療法人社団真愛会 札幌ファミリークリニック,北海道札幌市,手稲区,北海道札幌市手稲区星置2条4丁目2-22,,011-695-5211,1:2:3:4:5:6:7:8:9:10:11:12
141.2088145,43.1373324,医療法人社団 美田内科循環器科クリニック,北海道札幌市,手稲区,北海道札幌市手稲区星置2条4丁目7-43,,011-685-3300,8
141.2431129,43.1222769,医療法人渓仁会 手稲渓仁会病院,北海道札幌市,手稲区,北海道札幌市手稲区前田1条12丁目1-40,,011-681-8111,1:2:3:4:5:6:7:8:9:10:11:12
141.2436795,43.1230602,医療法人渓仁会 手稲渓仁会クリニック,北海道札幌市,手稲区,北海道札幌市手稲区前田1条12丁目2-15,,011-685-3888,1:2:3:4:5:6:7:8:9:10:11:12
141.2422768,43.1230435,Th涯医療クリニックさっぽろ,北海道札幌市,手稲区,北海道札幌市手稲区前田1条12丁目357番地22,,011-685-2799,1:2:3:4:5:6:7:8:9:10:11
141.24846,43.120144,医療法人渓仁会 手稲家庭医療クリニック,北海道札幌市,手稲区,北海道札幌市手稲区前田2条10丁目1-10,,011-685-3920,1:2:3:4:5:6:7:8:9:10:11
141.2498707,43.1243185,医療法人社団 たけうち小児科,北海道札幌市,手稲区,北海道札幌市手稲区前田4条11丁目8-6,,011-694-5555,1:2:3:4:5:6:7:9:10:11:12
141.2574591,43.1241882,よまいだ内科医院,北海道札幌市,手稲区,北海道札幌市手稲区前田6条9丁目2-8,,011-684-0651,11
141.3650235,43.0481671,旭町医院,北海道札幌市,豊平区,北海道札幌市豊平区旭町3丁目2-36,,011-811-0345,3
141.393205,43.0343215,勤医協月寒ファミリークリニック,北海道札幌市,豊平区,北海道札幌市豊平区月寒中央通4丁目1-15,,011-851-0229,1:2:3:4:5:6:7:8:9:10:11:12
141.396991,43.0304332,月寒こどもクリニック,北海道札幌市,豊平区,北海道札幌市豊平区月寒中央通7丁目6-20,JA月寒中央ビル5階,011-856-9181,1:2:3:4:5:6:7:8:9:10:11:12
141.3975466,43.0300333,医療法人社団豊水会たねいちリウマチクリニック,北海道札幌市,豊平区,北海道札幌市豊平区月寒中央通8丁目4-7,,011-853-7307,8
141.3971274,43.0257949,医療法人社団札幌朗愛会 札幌朗愛会病院,北海道札幌市,豊平区,北海道札幌市豊平区月寒西1条10丁目3-30,,011-853-2111,6:7:8
141.3923251,43.0249476,医療法人社団 川村小児科医院,北海道札幌市,豊平区,北海道札幌市豊平区月寒西2条10丁目2-75,,011-853-2888,1:2:3:4:5:6:7:8:9:10:11:12
141.3895088,43.0240671,はせがわ内科クリニック,北海道札幌市,豊平区,北海道札幌市豊平区月寒西4条10丁目7-17,,011-851-0610,2:3:9:10:11:12
141.3975102,43.0351521,月寒のぶおか内科消化器内科,北海道札幌市,豊平区,北海道札幌市豊平区月寒東1条4丁目3-8,,011-859-7701,8:10:11
141.4172063,43.0237791,医療法人社団グロリア会 月寒グロリアクリニック,北海道札幌市,豊平区,北海道札幌市豊平区月寒東3条16丁目3-8,,011-854-4103,8
141.4195174,43.0200713,医療法人社団のえる小児科,北海道札幌市,豊平区,北海道札幌市豊平区月寒東3条17丁目1-20,,011-858-0505,1:2:3:4:5:6:7:8:9:10:11:12
141.4222728,43.0183299,医療法人社団 北野通内科循環器クリニック,北海道札幌市,豊平区,北海道札幌市豊平区月寒東3条18丁目22-20,,011-853-8800,8:11
141.4061539,43.0334387,なんば内科循環器クリニック,北海道札幌市,豊平区,北海道札幌市豊平区月寒東4条7丁目8-28,,011-859-8800,8
141.3666147,43.0546719,神田産科婦人科クリニック,北海道札幌市,豊平区,北海道札幌市豊平区豊平3条1丁目1-33,,011-841-1103,8
141.378567,43.0461063,医療法人社団 とよひら公園内科クリニック,北海道札幌市,豊平区,北海道札幌市豊平区豊平4条11丁目3-5,,011-811-1518,3:5:6:7:8:9:10:11
141.3705813,43.0516029,医療法人社団 豊平おおたこどもクリニック,北海道札幌市,豊平区,北海道札幌市豊平区豊平4条3丁目3-10,豊平メディカルプラザ1階,011-815-2525,1:2:3:4:5:6:7:8:9:10:11:12
141.3705813,43.0516029,たけだ内科胃腸科クリニック,北海道札幌市,豊平区,北海道札幌市豊平区豊平4条3丁目3-10,豊平メディカルプラザ1階,011-823-1100,3:5:8
141.3653734,43.0510501,三浦内科循環器クリニック,北海道札幌市,豊平区,北海道札幌市豊平区豊平6条2丁目2-12,,011-821-5726,11
141.3722814,43.0465895,医療法人北志会 札幌ライラック病院,北海道札幌市,豊平区,北海道札幌市豊平区豊平6条8丁目2-18,,011-812-8822,8
141.3734647,43.0441926,医療法人おひげせんせいのこどもクリニック,北海道札幌市,豊平区,北海道札幌市豊平区豊平7条10丁目3-18,,011-820-1061,1:2:3:4:5:6:7:8:9:10:11:12
141.3780311,43.0415567,医療法人社団醫王会 緑の街診療所,北海道札幌市,豊平区,北海道札幌市豊平区豊平7条13丁目1-1,,011-825-9912,10:11
141.3596579,43.0367378,中の島せつこ内科クリニック,北海道札幌市,豊平区,北海道札幌市豊平区中の島1条2丁目3-15,,011-820-3900,8
141.35607,43.0257027,独立行政法人 地域医療機能推進機構 北海道病院,北海道札幌市,豊平区,北海道札幌市豊平区中の島1条8丁目3-18,,011-831-5151,1:2:3:4:5:6:7:8:9:10:11:12
141.36088,43.0373905,医療法人社団恵山会 中の島内科・消化器内科クリニック,北海道札幌市,豊平区,北海道札幌市豊平区中の島2条2丁目1-1,中の島ステーションビル2階,011-821-3113,8
141.3616577,43.0369516,中の島診療所,北海道札幌市,豊平区,北海道札幌市豊平区中の島2条2丁目2-1,,011-831-2387,1:2:3:4:5:6:7:8:9:10:11:12
141.3598666,43.0308717,医療法人社団 中里内科胃腸科クリニック,北海道札幌市,豊平区,北海道札幌市豊平区中の島2条5丁目9-1,石丸メディカルビル2階,011-815-8833,8
141.3950277,43.023584,松本内科クリニック,北海道札幌市,豊平区,北海道札幌市豊平区西岡4条1丁目5-1,,011-852-1353,8
141.3887204,43.0165708,医療法人社団 西岡こどもクリニック,北海道札幌市,豊平区,北海道札幌市豊平区西岡4条4丁目1-1,西岡メディカルビル2階,011-855-0770,1:2:3:4:5:6:7:8:9:10:11:12
141.3885621,43.0162625,社会医療法人恵和会 西岡病院,北海道札幌市,豊平区,北海道札幌市豊平区西岡4条4丁目1-52,,011-853-8322,8:11
141.3876375,43.0105187,医療法人社団ごとう内科クリニック,北海道札幌市,豊平区,北海道札幌市豊平区西岡4条7丁目7-1,,011-858-7771,3:8
141.3770199,42.9946564,社会医療法人恵和会 西岡水源池通りクリニック,北海道札幌市,豊平区,北海道札幌市豊平区西岡4条13丁目17-1,,011-584-5512,8:11
141.3672184,43.0364239,ＫＫＲ札幌医療センター,北海道札幌市,豊平区,北海道札幌市豊平区平岸1条6丁目3-40,,011-822-1811,1:2:3:4:5:6:7:8:9:10:12
141.3638555,43.0250223,医療法人 たんぽぽ小児科,北海道札幌市,豊平区,北海道札幌市豊平区平岸1条15丁目3-12,,011-876-0383,1:2:3:4:5:6:7:8:9:10:11:12
141.3581205,43.0145065,医療法人社団恒仁会 南さっぽろ小児科,北海道札幌市,豊平区,北海道札幌市豊平区平岸1条22丁目2-15,,011-820-8222,1:2:3:4:5:6:7:8:9:10:11:12
141.369332,43.0377293,小笠原医院,北海道札幌市,豊平区,北海道札幌市豊平区平岸2条5丁目1-12,ヤナギダビル1階,011-812-1788,1:2:3:4:5:6:7:8:9:10:11:12
141.3667963,43.0351463,やなづめ小児科・アレルギー科クリニック,北海道札幌市,豊平区,北海道札幌市豊平区平岸2条7丁目3-1,アルファビルⅣ2階,011-595-8341,1:2:3:4:5:6:7:8:9:10:11:12
141.3683767,43.0338325,医療法人社団 やなづめ内科・循環器クリニック,北海道札幌市,豊平区,北海道札幌市豊平区平岸2条8丁目4-17,,011-822-1271,1:2:3:4:5:6:7:8:9:11
141.3667243,43.0303773,北郷内科医院,北海道札幌市,豊平区,北海道札幌市豊平区平岸2条10丁目22-2,,011-812-2864,3:4:5:8:10:11
141.3678188,43.028272,まつぞの小児科医院,北海道札幌市,豊平区,北海道札幌市豊平区平岸2条12丁目3-12,,011-822-5000,1:2:3:4:5:6:7:8:9:10:11:12
141.3674773,43.0267027,髙木内科医院,北海道札幌市,豊平区,北海道札幌市豊平区平岸2条14丁目1-22,今崎メディカルビル4階,011-812-1200,8:12
141.3710291,43.036435,医療法人社団 平岸本町内科クリニック,北海道札幌市,豊平区,北海道札幌市豊平区平岸3条6丁目1-36,,011-822-6672,3:4:5:8
141.3699153,43.035974,医療法人社団敬愛会 わかばやし内科クリニック,北海道札幌市,豊平区,北海道札幌市豊平区平岸3条6丁目6-24,,011-841-3288,8
141.3695936,43.0267333,医療法人社団いちご会 美加レディースクリニック,北海道札幌市,豊平区,北海道札幌市豊平区平岸3条13丁目5-21,南平岸ビル2階,011-833-7773,8
141.3684883,43.0263305,医療法人社団 いし胃腸科内科医院,北海道札幌市,豊平区,北海道札幌市豊平区平岸3条14丁目1-5,,011-813-1220,8
141.3718963,43.0259667,医療法人社団根本耳鼻咽喉科クリニック,北海道札幌市,豊平区,北海道札幌市豊平区平岸4条14丁目2−3,,011-815−3387,3:4:5:6:7:8:9
141.3786729,43.0371683,医療法人社団 古山小児科内科医院,北海道札幌市,豊平区,北海道札幌市豊平区平岸5条6丁目4-5,,011-811-5417,1:2:3:4:5:6:7:8:9:10:11:12
141.3772787,43.0342825,医療法人社団 あいだクリニック循環器内科,北海道札幌市,豊平区,北海道札幌市豊平区平岸5条7丁目8-22,,011-820-1400,8
141.3788703,43.0334965,医療法人社団 ふなはし内科消化器科クリニック,北海道札幌市,豊平区,北海道札幌市豊平区平岸5条8丁目3-15,,011-831-1375,1:2:3:4:5:6:7:8:9
141.378043,43.0256418,平岸脳神経クリニック,北海道札幌市,豊平区,北海道札幌市豊平区平岸5条13丁目4-3,,011-818-0055,11
141.381379,43.0242114,医療法人社団 七武会 内科・胃腸内科平岸台クリニック,北海道札幌市,豊平区,北海道札幌市豊平区平岸7条14丁目1-38,金岡メディカルビル1階,011-811-3434,8
141.403891,43.0201513,医療法人社団慈昂会 福住内科クリニック,北海道札幌市,豊平区,北海道札幌市豊平区福住2条1丁目2-5,イトーヨーカドー福住5階,011-836-3531,8:11
141.403891,43.0201513,医療法人社団 小椋こどもクリニック,北海道札幌市,豊平区,北海道札幌市豊平区福住2条1丁目2-5,福住メディカル6階,011-852-0211,1:2:3:4:5:6:7:8:9:10:11:12
141.3948619,43.0113549,吉田内科医院,北海道札幌市,豊平区,北海道札幌市豊平区福住2条6丁目6-2,,011-851-2571,6:7:8:9:10:11:12
141.4067241,43.0179378,医療法人社団愛和会 愛内科クリニック,北海道札幌市,豊平区,北海道札幌市豊平区福住3条1丁目2-22,,011-836-3680,1:2:3:4:5:6:7:11
141.4066131,43.0179878,医療法人 福住産科婦人科クリニック,北海道札幌市,豊平区,北海道札幌市豊平区福住3条1丁目2-24,,011-836-1188,8
141.3867081,43.0415457,医療法人社団 上村内科医院,北海道札幌市,豊平区,北海道札幌市豊平区美園3条4丁目3-11,,011-821-3223,6:7:8:10:11:12
141.3845472,43.0412318,医療法人社団新芽会 美園産婦人科小児科,北海道札幌市,豊平区,北海道札幌市豊平区美園4条3丁目2-19,,011-824-0303,1:2:3:4:5:6:7:8:9:10:11:12
141.3839725,43.0371711,内科・神経内科美園医院,北海道札幌市,豊平区,北海道札幌市豊平区美園8条5丁目3-4,,011-820-4820,11